Store ID,Name,Brand,Store Number,Phone Number,Ownership Type,Street Combined,Street 1,Street 2,Street 3,City,Country Subdivision,Country,Postal Code,Coordinates,Latitude,Longitude,Timezone,Current Timezone Offset,Olson Timezone,First Seen
1,Plaza Hollywood,Starbucks,34638-85784,29554570,LS,"Level 2, Plaza Hollywood, Diamond Hill,, Kowloon","Level 2, Plaza Hollywood, Diamond Hill,",Kowloon,,Hong Kong,91,CN,,"(22.3407001495361, 114.201690673828)",22.340700149536133,114.20169067382813,China Standard Time,480,GMT+08:00 Asia/Beijing,12/08/2013 05:41:59 PM
6,Exchange Square,Starbucks,34601-20281,21473739,LS,"Shops 308-310, 3/F.,, Exchange Square Podium, Central, HK.","Shops 308-310, 3/F.,","Exchange Square Podium, Central, HK.",,Hong Kong,91,CN,,"(22.2839393615723, 114.158187866211)",22.283939361572266,114.15818786621094,China Standard Time,480,GMT+08:00 Asia/Beijing,12/08/2013 05:41:59 PM
8,Telford Plaza,Starbucks,34610-28207,27541323,LS,"Shop Unit G1A, Atrium A, Telford Plaza I, , Kowloon Bay, Kowloon","Shop Unit G1A, Atrium A, Telford Plaza I",", Kowloon Bay, Kowloon",,Kowloon,91,CN,,"(22.3228702545166, 114.213439941406)",22.3228702545166,114.21343994140625,China Standard Time,480,GMT+08:00 Asia/Beijing,12/08/2013 05:41:59 PM
13,Hong Kong Station,Starbucks,34622-64463,25375216,LS,"Concession HOK 3a & b, LAR Hong Kong Station",Concession HOK 3a & b,LAR Hong Kong Station,,Hong Kong,91,CN,,"(22.2844505310059, 114.158462524414)",22.284450531005859,114.15846252441406,China Standard Time,480,GMT+08:00 Asia/Beijing,12/08/2013 05:41:59 PM
17,"Pacific Place, Central",Starbucks,34609-22927,29184762,LS,"Shop 131, Level 1, Pacific Place, 88 Queensway, HK","Shop 131, Level 1, Pacific Place","88 Queensway, HK",,Hong Kong,91,CN,,"(22.2776565551758, 114.164619445801)",22.277656555175781,114.16461944580078,China Standard Time,480,GMT+08:00 Asia/Beijing,12/08/2013 05:41:59 PM
23,Three Garden Road,Starbucks,34616-51681,25091007,LS,"Shop 3, Citibank Plaza,3 Garden Road, Central, HK","Shop 3, Citibank Plaza,3 Garden Road","Central, HK",,Hong Kong,91,CN,,"(22.2785205841064, 114.160873413086)",22.278520584106445,114.16087341308594,China Standard Time,480,GMT+08:00 Asia/Beijing,12/08/2013 05:41:59 PM
25,MTR Central,Starbucks,34630-69462,28400565,LS,"Kiosk Nos. CEN K4-K5, Transfer Concourse, , MTR Central Station","Kiosk Nos. CEN K4-K5, Transfer Concourse",", MTR Central Station",,Hong Kong,91,CN,,"(22.2811298370361, 114.159461975098)",22.281129837036133,114.15946197509766,China Standard Time,480,GMT+08:00 Asia/Beijing,12/08/2013 05:41:59 PM
27,Wan Chai Tower,Starbucks,34615-55880,28240568,LS,"G/F, Wanchai Tower, 12 Harbour Road, Wanchai, HK","G/F, Wanchai Tower, 12 Harbour Road","Wanchai, HK",,Hong Kong,91,CN,,"(22.2800197601318, 114.17261505127)",22.280019760131836,114.17261505126953,China Standard Time,480,GMT+08:00 Asia/Beijing,12/08/2013 05:41:59 PM
34,Shun Tak Centre,Starbucks,34634-82422,25496508,LS,"Shop unit 226-227, 2/F, Shun Tak Centre,, Nos.168-200 Connaught Road Central","Shop unit 226-227, 2/F, Shun Tak Centre,",Nos.168-200 Connaught Road Central,,Hong Kong,91,CN,,"(22.2878608703613, 114.152206420898)",22.287860870361328,114.15220642089844,China Standard Time,480,GMT+08:00 Asia/Beijing,12/08/2013 05:41:59 PM
37,Sun Hung Kai Centre,Starbucks,34605-28027,28457367,LS,"Shop G12-13, G/F. Sun Hung Kai Centre, 30 Harbour Road, Wanchai","Shop G12-13, G/F. Sun Hung Kai Centre","30 Harbour Road, Wanchai",,Wan Chai,91,CN,,"(22.2805519104004, 114.176803588867)",22.280551910400391,114.17680358886719,China Standard Time,480,GMT+08:00 Asia/Beijing,12/08/2013 05:41:59 PM
39,Wafi Mall,Starbucks,34249-62099,04-3243641,LS,"Oud Mina, Shop # 212, Wafi Mall",Oud Mina,"Shop # 212, Wafi Mall",,Dubai,DU,AE,,"(25.2494506835938, 55.2799186706543)",25.24945068359375,55.2799186706543,Arabian Standard Time,240,GMT+04:00 Asia/Dubai,12/08/2013 05:41:59 PM
41,Al Gurrair Mall,Starbucks,34219-17920,04-2212559,LS,Deira- Riqqa Street,Deira- Riqqa Street,,,Dubai,DU,AE,,"(25.2668266296387, 55.3170433044434)",25.266826629638672,55.317043304443359,Arabian Standard Time,240,GMT+04:00 Asia/Dubai,12/08/2013 05:41:59 PM
42,Umm Sequeim,Starbucks,34291-80114,043952230,LS,"Jumeirah, Near Spinney's",Jumeirah,Near Spinney's,,Dubai,DU,AE,,"(25.1678905487061, 55.2284088134766)",25.167890548706055,55.228408813476562,Arabian Standard Time,240,GMT+04:00 Asia/Dubai,12/08/2013 05:41:59 PM
44,Jebel Ali,Starbucks,34292-76574,04-8816680,LS,"Jebel Ali, Near Gate No. 4",Jebel Ali,Near Gate No. 4,,Dubai,DU,AE,,"(24.9915599822998, 55.0934791564941)",24.991559982299805,55.093479156494141,Arabian Standard Time,240,GMT+04:00 Asia/Dubai,12/08/2013 05:41:59 PM
45,Emirates Tower,Starbucks,34211-17922,04-3303363,LS,Sheikh Zayed Road,Sheikh Zayed Road,,,Dubai,DU,AE,,"(25.2148704528809, 55.2826499938965)",25.214870452880859,55.282649993896484,Arabian Standard Time,240,GMT+04:00 Asia/Dubai,12/08/2013 05:41:59 PM
48,Palm Strip,Starbucks,34210-16835,04-3453808,LS,Jumeira 1,Jumeira 1,,,Dubai,DU,AE,,"(25.2327899932861, 55.2636985778809)",25.232789993286133,55.263698577880859,Arabian Standard Time,240,GMT+04:00 Asia/Dubai,12/08/2013 05:41:59 PM
49,Dubai Marina,Starbucks,34315-87671,04-3675468,LS,Sheik Zayed,Sheik Zayed,,,Dubai,DU,AE,,"(25.0842437744141, 55.150089263916)",25.084243774414062,55.150089263916016,Arabian Standard Time,240,GMT+04:00 Asia/Dubai,12/08/2013 05:41:59 PM
50,Marina Mall,Starbucks,34262-62540,02-6815883,LS,Marina Mall,Marina Mall,,,Abu Dhabi,AZ,AE,,"(24.4709606170654, 54.3222885131836)",24.47096061706543,54.322288513183594,Arabian Standard Time,240,GMT+04:00 Asia/Dubai,12/08/2013 05:41:59 PM
51,Abu Dhabi Mall,Starbucks,34227-33225,02-6454914,LS,"Al Salam Street, Tourist Club Area","Al Salam Street, Tourist Club Area",,,Abu Dhabi,AZ,AE,,"(24.4993896484375, 54.3701515197754)",24.4993896484375,54.370151519775391,Arabian Standard Time,240,GMT+04:00 Asia/Dubai,12/08/2013 05:41:59 PM
52,Hamdan Street,Starbucks,34260-17877,02-6261001,LS,Hamdan Street,Hamdan Street,,,Abu Dhabi,AZ,AE,,"(24.2120094299316, 55.6228904724121)",24.212009429931641,55.622890472412109,Arabian Standard Time,240,GMT+04:00 Asia/Muscat,12/08/2013 05:41:59 PM
60,Mercato Town Centre,Starbucks,34284-65720,04-3449611,LS,Jumeira Road,Jumeira Road,,,Dubai,DU,AE,,"(25.2168598175049, 55.2535247802734)",25.216859817504883,55.253524780273438,Arabian Standard Time,240,GMT+04:00 Asia/Dubai,12/08/2013 05:41:59 PM
61,Deira City Center Mall,Starbucks,34209-17918,042958543,LS,Deira,Deira,,,Dubai,DU,AE,,"(25.2541198730469, 55.3313217163086)",25.254119873046875,55.331321716308594,Egypt Standard Time,120,GMT+04:00 Asia/Dubai,12/08/2013 05:41:59 PM
62,Bukhatir Tower,Starbucks,34253-62541,06-5560572,LS,Sharjah Buheira Corniche,Sharjah Buheira Corniche,,,Sharjah,SH,AE,,"(25.3342761993408, 55.375862121582)",25.33427619934082,55.375862121582031,Arabian Standard Time,240,GMT+04:00 Asia/Dubai,12/08/2013 05:41:59 PM
63,Sahara Center,Starbucks,34259-54260,06-5315823,LS,Alnahda,Alnahda,,,Sharjah,SH,AE,,"(25.2982196807861, 55.3715591430664)",25.298219680786133,55.371559143066406,Arabian Standard Time,240,GMT+04:00 Asia/Dubai,12/08/2013 05:41:59 PM
64,Mega Mall,Starbucks,34252-54259,06-5744316,LS,"Near Spinneys Round Bord, 1st floor",Near Spinneys Round Bord,1st floor,,Sharjah,SH,AE,,"(25.3450508117676, 55.3978996276855)",25.345050811767578,55.397899627685547,Arabian Standard Time,240,GMT+04:00 Asia/Dubai,12/08/2013 05:41:59 PM
65,American University of Sharjah,Starbucks,34217-27108,06-5585722,LS,"Airport Road, Universities Complex",Airport Road,Universities Complex,,Sharjah,SH,AE,,"(25.2977695465088, 55.4841499328613)",25.297769546508789,55.484149932861328,Arabian Standard Time,240,GMT+04:00 Asia/Dubai,12/08/2013 05:41:59 PM
70,Uptown Mirdif,Starbucks,31338-103600,042888102,LS,Mirdif,Mirdif,,,Dubai,DU,AE,,"(25.2254199981689, 55.4255218505859)",25.225419998168945,55.425521850585938,Arabian Standard Time,240,GMT+04:00 Asia/Dubai,12/08/2013 05:41:59 PM
71,Al Wahda Mall,Starbucks,31719-103601,024437197,LS,"11th Street, Ground Floor, Main Entrance",11th Street,"Ground Floor, Main Entrance",,Abu Dhabi,AZ,AE,,"(24.4713306427002, 54.3723411560059)",24.471330642700195,54.372341156005859,Arabian Standard Time,240,GMT+04:00 Asia/Dubai,12/08/2013 05:41:59 PM
72,Sahara Tower,Starbucks,31853-109684,04 3316164,LS,"Ground Floor, Sheikh Zayed Road","Ground Floor, Sheikh Zayed Road",,,Dubai,DU,AE,,"(24.9245929718018, 54.9971771240234)",24.924592971801758,54.997177124023438,Arabian Standard Time,240,GMT+04:00 Asia/Dubai,12/08/2013 05:41:59 PM
73,Atlantis,Starbucks,32741-141410,044261435,LS,"Dubai Palm Island, Located in Dolphin Bay",Dubai Palm Island,Located in Dolphin Bay,,Dubai,DU,AE,,"(25.1337795257568, 55.120189666748)",25.133779525756836,55.120189666748047,Arabian Standard Time,240,GMT+04:00 Asia/Dubai,12/08/2013 05:41:59 PM
74,Shangri-La Souq,Starbucks,32767-131566,025581641,LS,"Shangri-La Souk, Um Al Nar","Shangri-La Souk, Um Al Nar",,,Abu Dhabi,AZ,AE,3167,"(24.419849395752, 54.5104713439941)",24.419849395751953,54.510471343994141,Arabian Standard Time,240,GMT+04:00 Asia/Dubai,12/08/2013 05:41:59 PM
75,Qanat Al Qasba,Starbucks,1359-138434,06-5560318,LS,Al Taawun Road,Al Taawun Road,,,Sharjah,SH,AE,,"(25.3231391906738, 55.3783302307129)",25.323139190673828,55.378330230712891,Arabian Standard Time,240,GMT+04:00 Asia/Dubai,12/08/2013 05:41:59 PM
76,Camellia Flowers,Starbucks,1935-141406,02-6355542,LS,"Khalidiya Area Khalidiya street, Behind Union Bank and Finance House",Khalidiya Area Khalidiya street,Behind Union Bank and Finance House,,Abu Dhabi,AZ,AE,,"(24.4686908721924, 54.3382415771484)",24.468690872192383,54.338241577148438,Arabian Standard Time,240,GMT+04:00 Asia/Dubai,12/08/2013 05:41:59 PM
80,Al Hamra Mall,Starbucks,1911-138604,07-2434772,LS,Umm-Al Qawain Ajman & Sharjah hwy,Umm-Al Qawain Ajman & Sharjah hwy,,,Ras Al Khaimah,RK,AE,,"(25.6822834014893, 55.7816886901855)",25.682283401489258,55.781688690185547,Arabian Standard Time,240,GMT+04:00 Asia/Dubai,12/08/2013 05:41:59 PM
82,Bawadi Mall,Starbucks,1926-141411,037840012,LS,Maziad road after Hilton roundabout,Maziad road after Hilton roundabout,,,Al Ain,AZ,AE,,"(24.1593208312988, 55.8054885864258)",24.159320831298828,55.805488586425781,Arabian Standard Time,240,GMT+04:00 Asia/Muscat,12/08/2013 05:41:59 PM
83,Twin Towers 13th Street,Starbucks,1897-120044,026430239,LS,"3th street Abudhabi(Al Najda Street), beside Al Masood Nissan Show room",3th street Abudhabi(Al Najda Street),beside Al Masood Nissan Show room,,Abu Dhabi,AZ,AE,,"(23.8500480651855, 55.5276184082031)",23.850048065185547,55.527618408203125,Arabian Standard Time,240,GMT+04:00 Asia/Dubai,12/08/2013 05:41:59 PM
85,Burjuman Centre II,Starbucks,34320-74020,043516656,LS,Banks Street,Banks Street,,,Dubai,DU,AE,,"(25.2537403106689, 55.3034973144531)",25.253740310668945,55.303497314453125,Arabian Standard Time,240,GMT+04:00 Asia/Dubai,12/08/2013 05:41:59 PM
86,Old Town Commercial Island,Starbucks,32144-123448,044200343,LS,"Burj Dubai Down Town, Level 3",Burj Dubai Down Town,Level 3,,Dubai,DU,AE,3167,"(25.1918640136719, 55.2774772644043)",25.191864013671875,55.2774772644043,Arabian Standard Time,240,GMT+04:00 Asia/Dubai,12/08/2013 05:41:59 PM
88,Madina Jumeirah,Starbucks,34317-95971,043686188,LS,Jumeirah,Jumeirah,,,Dubai,DU,AE,,"(25.1314506530762, 55.1872482299805)",25.131450653076172,55.187248229980469,Arabian Standard Time,240,GMT+04:00 Asia/Dubai,12/08/2013 05:41:59 PM
90,Khalidiya Strt (Abu'D),Starbucks,30781-99022,026670052,LS,Khalidiya St.,Khalidiya St.,,,Abu Dhabi,AZ,AE,,"(24.18798828125, 55.6879272460938)",24.18798828125,55.68792724609375,Arabian Standard Time,240,GMT+04:00 Asia/Muscat,12/08/2013 05:41:59 PM
92,Jimmy Mall,Starbucks,34332-97778,037627680,LS,"Baladia Road, opposite Passport Office",Baladia Road,opposite Passport Office,,Al Ain,AZ,AE,,"(24.2420997619629, 55.7267608642578)",24.242099761962891,55.726760864257812,Arabian Standard Time,240,GMT+04:00 Asia/Muscat,12/08/2013 05:41:59 PM
93,HCT Abu Dhabi Women's College Block,Starbucks,1579-122101,026426280,LS,"Najda Street, Higher Colleges of Technology",Najda Street,Higher Colleges of Technology,,Abu Dhabi,AZ,AE,3167,"(24.4879398345947, 54.3720207214355)",24.487939834594727,54.372020721435547,Arabian Standard Time,240,GMT+04:00 Asia/Dubai,12/08/2013 05:41:59 PM
152,Malabia,Starbucks,1290-142064,4831-9937,LS,Malabia 1720,Malabia 1720,,,Buenos Aires,C,AR,C1414DMJ,"(-34.5898361206055, -58.425609588623)",-34.589836120605469,-58.425609588623047,Argentina Standard Time,-180,GMT-03:00 America/Argentina/Bu,12/08/2013 05:41:59 PM
94,DBX - Dubai Airport Terminal 3 C201,Starbucks,1577-123446,042203661,LS,"Terminal 3,  Near Departure Gate 205, West Wing Food Court Area","Terminal 3,  Near Departure Gate 205",West Wing Food Court Area,,Dubai,DU,AE,2525,"(25.2525749206543, 55.3539924621582)",25.252574920654297,55.3539924621582,Arabian Standard Time,240,GMT+04:00 Asia/Dubai,12/08/2013 05:41:59 PM
95,Gardens 3,Starbucks,34335-97976,043685991,LS,"Jebel Ali Gardens, Gardens III Tunisia Court",Jebel Ali Gardens,Gardens III Tunisia Court,,Dubai,DU,AE,,"(25.0406303405762, 55.1213111877441)",25.040630340576172,55.121311187744141,Arabian Standard Time,240,GMT+04:00 Asia/Dubai,12/08/2013 05:41:59 PM
96,Gardens 2,Starbucks,34337-97975,043685986,LS,"Jebel Ali Gardens, Gardens II China Court",Jebel Ali Gardens,Gardens II China Court,,Dubai,DU,AE,,"(25.0462512969971, 55.1241073608398)",25.04625129699707,55.124107360839844,Arabian Standard Time,240,GMT+04:00 Asia/Dubai,12/08/2013 05:41:59 PM
97,Gardens 1,Starbucks,34336-97974,043685403,LS,"Jebel Ali Gardens, Gardens I Persia Court",Jebel Ali Gardens,Gardens I Persia Court,,Dubai,DU,AE,,"(25.0438499450684, 55.1223106384277)",25.043849945068359,55.122310638427734,Arabian Standard Time,240,GMT+04:00 Asia/Dubai,12/08/2013 05:41:59 PM
98,Knowledge Village,Starbucks,34346-97779,04-3616288,LS,"Block 18, Jumeirah Road, Beside Shape Wellness Spa","Block 18, Jumeirah Road",Beside Shape Wellness Spa,,Dubai,DU,AE,,"(25.1022624969482, 55.1624526977539)",25.102262496948242,55.162452697753906,Arabian Standard Time,240,GMT+04:00 Asia/Dubai,12/08/2013 05:41:59 PM
100,Health Care City Dubai,Starbucks,30954-99024,043624858,LS,"Dubai Health Care City D Block, Ground Floor",Dubai Health Care City D Block,Ground Floor,,Dubai,DU,AE,,"(25.2310905456543, 55.3264694213867)",25.231090545654297,55.326469421386719,Arabian Standard Time,240,GMT+04:00 Asia/Dubai,12/08/2013 05:41:59 PM
102,Emaar Town Center,Starbucks,31002-101076,043617373,LS,"Springs 1, Beside Spinneys Supermarket","Springs 1, Beside Spinneys Supermarket",,,Dubai,DU,AE,,"(25.0535469055176, 55.1719932556152)",25.053546905517578,55.171993255615234,Arabian Standard Time,240,GMT+04:00 Asia/Dubai,12/08/2013 05:41:59 PM
104,Jumeirah Beach Residence 3 P24a,Starbucks,32571-107873,044355728,LS,"Jumeirah Beach Residence, Opposite right side Dubai Hilton Hotel",Jumeirah Beach Residence,Opposite right side Dubai Hilton Hotel,,Dubai,DU,AE,,"(25.0749397277832, 55.1325187683105)",25.074939727783203,55.132518768310547,Arabian Standard Time,240,GMT+04:00 Asia/Dubai,12/08/2013 05:41:59 PM
105,DBX - Dubai Airport Terminal 3 C207,Starbucks,3169-123447,042203990,LS,"Terminal 3 Departures, east wing duty free area",Terminal 3 Departures,east wing duty free area,,Dubai,DU,AE,2525,"(25.2525806427002, 55.3540802001953)",25.252580642700195,55.354080200195312,Arabian Standard Time,240,GMT+04:00 Asia/Dubai,12/08/2013 05:41:59 PM
106,Arabian Centre,Starbucks,3173-122109,04 2845433,LS,"Plot 262-3104, Al Mizar First","Plot 262-3104, Al Mizar First",,,Dubai,DU,AE,3167,"(25.2566394805908, 55.4558486938477)",25.25663948059082,55.455848693847656,Arabian Standard Time,240,GMT+04:00 Asia/Dubai,12/08/2013 05:41:59 PM
107,Oasis Centre,Starbucks,3183-143827,043307155,LS,"Shaikh Zayed Road, Ground Floor",Shaikh Zayed Road,Ground Floor,,Dubai,DU,AE,,"(25.1690406799316, 55.2423286437988)",25.169040679931641,55.242328643798828,Arabian Standard Time,240,GMT+04:00 Asia/Dubai,12/08/2013 05:41:59 PM
108,Safeer Mall,Starbucks,3172-113584,07-2355921,LS,Umm-Al Qawain Ajman and Sharjah hwy,Umm-Al Qawain Ajman and Sharjah hwy,,,Ras Al Khaimah,RK,AE,,"(25.7480602264404, 55.9244499206543)",25.74806022644043,55.9244499206543,Arabian Standard Time,240,GMT+04:00 Asia/Dubai,12/08/2013 05:41:59 PM
109,Jumeirah Beach Residence 4 GM09,Starbucks,32457-106838,044233770,LS,"Jumeirah Beach Residence, Beside Marlin Furniture & opposite Ritz",Jumeirah Beach Residence,Beside Marlin Furniture & opposite Ritz,,Dubai,DU,AE,,"(25.0807399749756, 55.1389694213867)",25.080739974975586,55.138969421386719,Arabian Standard Time,240,GMT+04:00 Asia/Dubai,12/08/2013 05:41:59 PM
110,Jumeirah Beach Residence 6 GM10,Starbucks,32476-106835,044233862,LS,"Jumeirah Beach Residence, Opposite Sheraton Hotel Dubai",Jumeirah Beach Residence,Opposite Sheraton Hotel Dubai,,Dubai,DU,AE,,"(25.0718097686768, 55.1297492980957)",25.071809768676758,55.1297492980957,Arabian Standard Time,240,GMT+04:00 Asia/Dubai,12/08/2013 05:41:59 PM
111,Tawam Hospital,Starbucks,32640-131563,037677581,LS,"Al Ain Abu Dhabi Rd, Khalifa Bin Zayed, Al Makam Area","Al Ain Abu Dhabi Rd, Khalifa Bin Zayed",Al Makam Area,,Al Ain,AZ,AE,3167,"(24.1926898956299, 55.6504516601563)",24.192689895629883,55.65045166015625,Arabian Standard Time,240,GMT+04:00 Asia/Muscat,12/08/2013 05:41:59 PM
114,Blue Tower A,Starbucks,32029-110804,026429255,LS,"Street No.4, Muroor Road, Ground Floor","Street No.4, Muroor Road",Ground Floor,,Abu Dhabi,AZ,AE,,"(24.2148609161377, 55.7374610900879)",24.214860916137695,55.737461090087891,Arabian Standard Time,240,GMT+04:00 Asia/Muscat,12/08/2013 05:41:59 PM
116,The Residence Tower 1,Starbucks,32250-107405,044200636,LS,Down Town Burj,Down Town Burj,,,Dubai,DU,AE,,"(25.1923904418945, 55.271900177002)",25.192390441894531,55.271900177001953,Arabian Standard Time,240,GMT+04:00 Asia/Dubai,12/08/2013 05:41:59 PM
117,Khalidiya Mall,Starbucks,32239-100001,026354740,LS,"Street no. 26 of Khalidiya Area, Ground Floor, Shop No. A11",Street no. 26 of Khalidiya Area,"Ground Floor, Shop No. A11",,Abu Dhabi,AZ,AE,,"(24.4708385467529, 54.3524513244629)",24.47083854675293,54.352451324462891,Arabian Standard Time,240,GMT+04:00 Asia/Dubai,12/08/2013 05:41:59 PM
118,Emaar Business Park,Starbucks,32117-116426,044224888,LS,"Dubai Marina after Mall of Emirates, 3rd Bldg,  Gr Floor, Near Main Entrance",Dubai Marina after Mall of Emirates,"3rd Bldg,  Gr Floor, Near Main Entrance",,Dubai,DU,AE,,"(25.0959091186523, 55.1690483093262)",25.095909118652344,55.169048309326172,SA Western Standard Time,-240,GMT+04:00 Asia/Dubai,12/08/2013 05:41:59 PM
120,Burj Dubai Business Park,Starbucks,32292-111724,044257991,LS,"Building 4, Ground Floor",Building 4,Ground Floor,,Dubai,DU,AE,,"(25.2029094696045, 55.2743797302246)",25.202909469604492,55.274379730224609,Arabian Standard Time,240,GMT+04:00 Asia/Dubai,12/08/2013 05:41:59 PM
121,21st Century Tower,Starbucks,32269-114734,04-3250028,LS,"Sheikh Zayed Road, Ground Floor",Sheikh Zayed Road,Ground Floor,,Dubai,DU,AE,,"(25.2111129760742, 55.2752227783203)",25.211112976074219,55.275222778320312,Arabian Standard Time,240,GMT+04:00 Asia/Dubai,12/08/2013 05:41:59 PM
123,Al Ghadeer Tower,Starbucks,32328-123449,04-3295676,LS,"Shaikh Zayed Road (In front of DIFC), Ground Floor",Shaikh Zayed Road (In front of DIFC),Ground Floor,,Dubai,DU,AE,58301,"(25.215539932251, 55.2789001464844)",25.215539932250977,55.278900146484375,Arabian Standard Time,240,GMT+04:00 Asia/Dubai,12/08/2013 05:41:59 PM
124,Old Town Amenity Building,Starbucks,32329-111864,044309436,LS,Burj Dubai,Burj Dubai,,,Dubai,DU,AE,,"(25.1924304962158, 55.2783966064453)",25.19243049621582,55.278396606445312,Arabian Standard Time,240,GMT+04:00 Asia/Dubai,12/08/2013 05:41:59 PM
125,JBR 1 Rimal Plaza,Starbucks,32523-106836,044355751,LS,"Jumeirah Beach Residence, Opposite of Dubai Hilton Hotel",Jumeirah Beach Residence,Opposite of Dubai Hilton Hotel,,Dubai,DU,AE,,"(25.0749397277832, 55.1326103210449)",25.074939727783203,55.132610321044922,Arabian Standard Time,240,GMT+04:00 Asia/Dubai,12/08/2013 05:41:59 PM
126,Movenpick,Starbucks,32714-122107,043374720,LS,"Street 19, Oud  Metha Area, Ground Floor","Street 19, Oud  Metha Area",Ground Floor,,Dubai,DU,AE,121223,"(25.2344703674316, 55.3114700317383)",25.234470367431641,55.311470031738281,Arabian Standard Time,240,GMT+04:00 Asia/Dubai,12/08/2013 05:41:59 PM
134,Dubai Mall LG 118,Starbucks,1801-136467,043398434,LS,"Burj Dubai Boulevard, Sheikh Zayed Rd, Shop LG 118","Burj Dubai Boulevard, Sheikh Zayed Rd",Shop LG 118,,Dubai,DU,AE,3167,"(25.1994724273682, 55.2753295898438)",25.199472427368164,55.27532958984375,Arabian Standard Time,240,GMT+04:00 Asia/Dubai,12/08/2013 05:41:59 PM
135,Park Place Showmax,Starbucks,6137-116711,043428399,LS,"Jumeirah Beach Road, in front of Jumeirah Beach Park",Jumeirah Beach Road,in front of Jumeirah Beach Park,,Dubai,DU,AE,,"(25.1965999603271, 55.2366714477539)",25.196599960327148,55.236671447753906,Arabian Standard Time,240,GMT+04:00 Asia/Dubai,12/08/2013 05:41:59 PM
136,Standard Chartered Building,Starbucks,32595-122105,026359275,LS,"Khalidiya St., Beside Union Cooperative Society",Khalidiya St.,Beside Union Cooperative Society,,Abu Dhabi,AZ,AE,3167,"(24.1879901885986, 55.687931060791)",24.187990188598633,55.687931060791016,Arabian Standard Time,240,GMT+04:00 Asia/Muscat,12/08/2013 05:41:59 PM
138,JBR 2 Rimal Marina,Starbucks,32425-106837,044233751,LS,"Jumeirah Beach Residence, front right corner of the Marina Tower",Jumeirah Beach Residence,front right corner of the Marina Tower,,Dubai,DU,AE,,"(25.0807399749756, 55.1390609741211)",25.080739974975586,55.139060974121094,Arabian Standard Time,240,GMT+04:00 Asia/Dubai,12/08/2013 05:41:59 PM
139,Dubai Marina Mall,Starbucks,1968-136466,044342660,LS,"Sheikh Zayed Road, Jumeirah Beach Residence Area",Sheikh Zayed Road,Jumeirah Beach Residence Area,,Dubai,DU,AE,3167,"(25.0755996704102, 55.1410484313965)",25.075599670410156,55.141048431396484,Arabian Standard Time,240,GMT+04:00 Asia/Dubai,12/08/2013 05:41:59 PM
140,Abu Dhabi University - Women's,Starbucks,3178-141407,025860492,LS,"Road Al ain Abu Dhabi Road number 22, Women side",Road Al ain Abu Dhabi Road number 22,Women side,,Abu Dhabi,AZ,AE,,"(24.3504238128662, 54.5699806213379)",24.350423812866211,54.569980621337891,Arabian Standard Time,240,GMT+04:00 Asia/Dubai,12/08/2013 05:41:59 PM
141,Abu Dhabi University - Men's,Starbucks,3886-141408,024433824,LS,"Muroor Street, Abu Dhabi Mall","Muroor Street, Abu Dhabi Mall",,,Abu Dhabi,AZ,AE,,"(24.4629192352295, 54.3517875671387)",24.462919235229492,54.351787567138672,Arabian Standard Time,240,GMT+04:00 Asia/Dubai,12/08/2013 05:41:59 PM
145,Deira City Center 4,Starbucks,31199-104340,04-2948442,LS,Deira,Deira,,,Dubai,DU,AE,,"(25.2532596588135, 55.3326187133789)",25.253259658813477,55.332618713378906,Arabian Standard Time,240,GMT+04:00 Asia/Dubai,12/08/2013 05:41:59 PM
160,Mariahilfer Strasse,Starbucks,40204-76700,43 1 3366332505,CO,Mariahilfer Strasse 23-25,Mariahilfer Strasse 23-25,,,Wien,9,AT,1060,"(48.2007064819336, 16.3586349487305)",48.200706481933594,16.358634948730469,W. Europe Standard Time,60,GMT+1:00 Europe/Vienna,12/08/2013 05:41:59 PM
161,Neubaugasse,Starbucks,40206-77760,43 1 3366332507,CO,Neubaugasse 4,Neubaugasse 4,,,Wien,9,AT,1070,"(48.1986541748047, 16.3500518798828)",48.198654174804688,16.350051879882812,W. Europe Standard Time,60,GMT+1:00 Europe/Vienna,12/08/2013 05:41:59 PM
147,Panamericano,Starbucks,4034-136938,5777-9501,LS,Melian Avenida 4602,Melian Avenida 4602,,,Buenos Aires,C,AR,C1430EZT,"(-34.5473480224609, -58.4859466552734)",-34.547348022460938,-58.485946655273438,Argentina Standard Time,-180,GMT-03:00 America/Argentina/Bu,12/08/2013 05:41:59 PM
148,Abasto Shopping Center,Starbucks,1279-139527,4861-1730,LS,Corrientes Avenida 3247,Corrientes Avenida 3247,,,Buenos Aires,C,AR,C1193AAE,"(-34.6039123535156, -58.4109382629395)",-34.603912353515625,-58.410938262939453,Argentina Standard Time,-180,GMT-03:00 America/Argentina/Bu,12/08/2013 05:41:59 PM
149,DOT Planta Baja,Starbucks,3525-142748,5777-9501,LS,Melian Avenida 4602,Melian Avenida 4602,,,Buenos Aires,C,AR,C1430EZT,"(-34.5473480224609, -58.4858589172363)",-34.547348022460938,-58.485858917236328,Argentina Standard Time,-180,GMT-03:00 America/Argentina/Bu,12/08/2013 05:41:59 PM
150,Florida 1,Starbucks,1285-140708,4342-9317,LS,"Florida 1, esquina Avenida Rivadavia","Florida 1, esquina Avenida Rivadavia",,,Buenos Aires,C,AR,C1005AAA,"(-34.6079788208008, -58.3749656677246)",-34.607978820800781,-58.374965667724609,Argentina Standard Time,-180,GMT-03:00 America/Argentina/Bu,12/08/2013 05:41:59 PM
151,Alto Palermo,Starbucks,32499-133544,5777-8114,LS,"Av Coronel Diaz 3360, (esq. Arenales)","Av Coronel Diaz 3360, (esq. Arenales)",,,Buenos Aires,C,AR,C1425BGI,"(-34.588062286377, -58.409782409668)",-34.588062286376953,-58.409782409667969,Argentina Standard Time,-180,GMT-03:00 America/Argentina/Bu,12/08/2013 05:41:59 PM
153,Elcano,Starbucks,1284-140707,4554-7122,LS,Elcano 3179,Elcano 3179,,,Buenos Aires,C,AR,C1427CIV,"(-34.5729331970215, -58.4593734741211)",-34.572933197021484,-58.459373474121094,Argentina Standard Time,-180,GMT-03:00 America/Argentina/Bu,12/08/2013 05:41:59 PM
154,Viamonte,Starbucks,1277-139525,5258-0314,LS,Callao 702 (esq. Viamonte),Callao 702 (esq. Viamonte),,,Buenos Aires,C,AR,C1023AAN,"(-34.600772857666, -58.3925857543945)",-34.600772857666016,-58.392585754394531,Argentina Standard Time,-180,GMT-03:00 America/Argentina/Bu,12/08/2013 05:41:59 PM
155,Federico Lacroze,Starbucks,1270-136935,4899-1505,LS,Av Federico Lacroze 2301 (esq 3 de Febr),Av Federico Lacroze 2301 (esq 3 de Febr),,,Buenos Aires,C,AR,C1426CPI,"(-34.5688133239746, -58.4437446594238)",-34.568813323974609,-58.443744659423828,Argentina Standard Time,-180,GMT-03:00 America/Argentina/Bu,12/08/2013 05:41:59 PM
156,Defensores,Starbucks,3633-142525,4701-9317,LS,"Av. Comodor Martin Rivadavia 1560, esq. Avenida del Libertador",Av. Comodor Martin Rivadavia 1560,esq. Avenida del Libertador,,Buenos Aires,C,AR,C1429DBR,"(-34.5414390563965, -58.4630432128906)",-34.541439056396484,-58.463043212890625,Argentina Standard Time,-180,GMT-03:00 America/Argentina/Bu,12/08/2013 05:41:59 PM
164,Millennium City,Starbucks,40202-69420,43 1 3366332502,CO,Handelskai 94-96,Handelskai 94-96,,,Wien,9,AT,1200,"(48.2403450012207, 16.3869857788086)",48.2403450012207,16.386985778808594,W. Europe Standard Time,60,GMT+1:00 Europe/Vienna,12/08/2013 05:41:59 PM
168,Karlsplatzpassage,Starbucks,32492-120288,4313366332520,CO,Karlsplatz Hauptpassage,Karlsplatz Hauptpassage,,,Wien,9,AT,1010,"(48.2007865905762, 16.3687648773193)",48.200786590576172,16.368764877319336,W. Europe Standard Time,60,GMT+1:00 Europe/Vienna,12/08/2013 05:41:59 PM
169,Rotenturmstrasse,Starbucks,31077-103980,43 1 3366332515,CO,Rotenturmstrasse 22,Rotenturmstrasse 22,,,Wien,9,AT,1010,"(48.2112998962402, 16.3760929107666)",48.211299896240234,16.3760929107666,W. Europe Standard Time,60,GMT+1:00 Europe/Vienna,12/08/2013 05:41:59 PM
170,Michaelerplatz,Starbucks,40213-99693,43 1 3366332514,CO,Reitschulgasse 4,Reitschulgasse 4,,,Wien,9,AT,1010,"(48.2076263427734, 16.367094039917)",48.207626342773438,16.367094039916992,W. Europe Standard Time,60,GMT+1:00 Europe/Vienna,12/08/2013 05:41:59 PM
171,AKH Allgemeines Krankenhaus,Starbucks,40212-96779,43 1 3366332512,CO,Waehringer Guertel 18-20,Waehringer Guertel 18-20,,,Wien,9,AT,1090,"(48.2204093933105, 16.3474731445313)",48.220409393310547,16.34747314453125,W. Europe Standard Time,60,GMT+1:00 Europe/Vienna,12/08/2013 05:41:59 PM
172,Invalidenstrasse,Starbucks,32495-133884,43 1 3366332521,CO,Invalidenstrasse 11,Invalidenstrasse 11,,,Wien,9,AT,1030,"(48.2058181762695, 16.3858470916748)",48.205818176269531,16.385847091674805,W. Europe Standard Time,60,GMT+1:00 Europe/Vienna,12/08/2013 05:41:59 PM
270,Brussels Airport Depart. Hall,Starbucks,32639-137287,+32 2 719 77 00,LS,"Departure Hall, Brussels Airport - BRU",Departure Hall,,Brussels Airport - BRU,Zaventem,VLG,BE,B-1930,"(50.8973693847656, 4.48509979248047)",50.897369384765625,4.485099792480469,Romance Standard Time,60,GMT+1:00 Europe/Brussels,12/08/2013 05:41:59 PM
274,حديقة مركز الدبلوماسي,Starbucks,1349-112145,17531728,LS,"المنطقة الدبلوماسية, ق: 317, طريق: 1704, بجانب مبنى التأمينات الاجتماعية (منظمة التأمين الاجتماعي), محل رقم :8, مبنى 263","المنطقة الدبلوماسية, ق: 317, طريق: 1704, بجانب مبنى التأمينات الاجتماعية (منظمة التأمين الاجتماعي)",محل رقم :8,مبنى 263,المنامة,13,BH,,"(26.2416896820068, 50.5879783630371)",26.241689682006836,50.587978363037109,Arab Standard Time,180,GMT+000000 Asia/Bahrain,12/08/2013 05:41:59 PM
276,مطار البحرين بوابة 16,Starbucks,3639-145205,17339537,LS,"ق: 224, طريق 2404, مبنى ,212,, بوابة 16, مطار البحرين","ق: 224, طريق 2404, مبنى ,212,",بوابة 16,مطار البحرين,المنامة,15,BH,,"(26.2695999145508, 50.6260795593262)",26.269599914550781,50.626079559326172,Arab Standard Time,180,GMT+000000 Asia/Bahrain,12/08/2013 05:41:59 PM
277,مجمع السيف,Starbucks,34218-27369,17583033,LS,"البحرين, منطقة السيف,  ستاربكس مجمع السيف. ص.ب 26910,, محل رقم :110, مجمع السيف","البحرين, منطقة السيف,  ستاربكس مجمع السيف. ص.ب 26910,",محل رقم :110,مجمع السيف,المنامة,13,BH,,"(26.2325305938721, 50.5364418029785)",26.23253059387207,50.536441802978516,Arab Standard Time,180,GMT+000000 Asia/Bahrain,12/08/2013 05:41:59 PM
278,باديز,Starbucks,34286-79020,17721641,LS,"المنامة\ بو عاشيرة بالقرب من الجزيرة سوبر ماركت, ق: 332,طريق: 33, محل رقم :6, مركز الجزيرة للتسويق","المنامة\ بو عاشيرة بالقرب من الجزيرة سوبر ماركت, ق: 332,طريق: 33",محل رقم :6,مركز الجزيرة للتسويق,الزينج,13,BH,,"(26.2063999176025, 50.5761909484863)",26.206399917602539,50.576190948486328,Arab Standard Time,180,GMT+000000 Asia/Bahrain,12/08/2013 05:41:59 PM
279,مجمع البحرين,Starbucks,34234-33223,17556050,LS,"مجمع البحرين, ق:410, طريق: 28, مبنى 184, محل رقم :136, مجمع البحرين","مجمع البحرين, ق:410, طريق: 28, مبنى 184",محل رقم :136,مجمع البحرين,البحرين,13,BH,,"(26.2298202514648, 50.5371704101563)",26.229820251464844,50.53717041015625,Arab Standard Time,180,GMT+000000 Asia/Bahrain,12/08/2013 05:41:59 PM
280,ستراند بلازا,Starbucks,34324-95973,17723428,LS,"الجفير, نادي المنامة ,طريق 4021, وحدات 493 و493A, ستراند بلازا مبنى 340","الجفير, نادي المنامة ,طريق 4021",وحدات 493 و493A,ستراند بلازا مبنى 340,البحرين,13,BH,,"(26.2116508483887, 50.6077308654785)",26.211650848388672,50.607730865478516,Arab Standard Time,180,GMT+000000 Asia/Bahrain,12/08/2013 05:41:59 PM
335,3035 Argentia Rd,Starbucks,4665-100880,905-785-7667,CO,"3035 Argentia Road, unIT 7",3035 Argentia Road,unIT 7,,Mississauga,ON,CA,L5N 8P7,"(43.5956649780273, -79.7863235473633)",43.595664978027344,-79.786323547363281,Eastern Standard Time,-300,GMT-05:00 America/Toronto,12/08/2013 05:41:59 PM
282,سند (يم يم),Starbucks,34302-86720,17624154,LS,"سند, ق: 745, طريق:4566, مبنى:2206 محل رقم. 23, محل رقم :23, مبنى يم يم3","سند, ق: 745, طريق:4566, مبنى:2206 محل رقم. 23",محل رقم :23,مبنى يم يم3,سند,14,BH,,"(26.1446895599365, 50.5790214538574)",26.144689559936523,50.579021453857422,Arab Standard Time,180,GMT+000000 Asia/Bahrain,12/08/2013 05:41:59 PM
284,"البحرين, سيتي سنتر",Starbucks,32717-122090,17179578,LS,"الجانب الغربي , الدور الغربي, منطقة السيف, البحرين, مجمع سيتي سنتر","الجانب الغربي , الدور الغربي",منطقة السيف,"البحرين, مجمع سيتي سنتر",المنامة,13,BH,199,"(26.234920501709, 50.5546684265137)",26.234920501708984,50.554668426513672,Arab Standard Time,180,GMT+000000 Asia/Bahrain,12/08/2013 05:41:59 PM
285,"بحرين, سيتي سنتر, دبنهامز",Starbucks,32716-134986,17179847,LS,"الدور الأرضي (بداخل دبنهامز), منطقة السيف, البحرين, مجمع سيتي سنتر",الدور الأرضي (بداخل دبنهامز),منطقة السيف,"البحرين, مجمع سيتي سنتر",المنامة,13,BH,199,"(26.234920501709, 50.5545806884766)",26.234920501708984,50.554580688476562,Arab Standard Time,180,GMT+000000 Asia/Bahrain,12/08/2013 05:41:59 PM
286,مركز المنامة,Starbucks,34345-98401,17214404,LS,"المنامة , مركز المنامة الحكومي,طريق : 383 ، بلوك : 316 الآفينيوز, محل رقم :0, مبنى 118","المنامة , مركز المنامة الحكومي,طريق : 383 ، بلوك : 316 الآفينيوز",محل رقم :0,مبنى 118,المنامة,13,BH,,"(26.2365798950195, 50.5771598815918)",26.236579895019531,50.5771598815918,Arab Standard Time,180,GMT+000000 Asia/Bahrain,12/08/2013 05:41:59 PM
321,Brava - Davie & Seymour,Starbucks,4579-96729,604-622-5558,CO,"605 Davie Street, Brava",605 Davie Street,,Brava,Vancouver,BC,CA,V6B 2G6,"(49.2767753601074, -123.125228881836)",49.276775360107422,-123.12522888183594,Pacific Standard Time,-480,GMT-08:00 America/Vancouver,12/08/2013 05:41:59 PM
322,Mission Creek Plaza-Kelowna,Starbucks,4641-99593,250-764-2243,CO,"3957 Lakeshore Road, 101, Lakeshore Plaza",3957 Lakeshore Road,101,Lakeshore Plaza,Kelowna,BC,CA,V1W 1V3,"(49.8413734436035, -119.487571716309)",49.841373443603516,-119.48757171630859,Pacific Standard Time,-480,GMT-08:00 America/Vancouver,12/08/2013 05:41:59 PM
271,Burgas Plaza Mall,Starbucks,1460-137881,,LS,Stefan Stambolov Blvd & Transportna Str,Stefan Stambolov Blvd & Transportna Str,,,Burgas,02,BG,,"(42.4245414733887, 25.6179351806641)",42.424541473388672,25.617935180664062,FLE Standard Time,120,GMT+2:00 Europe/Sofia,12/08/2013 05:41:59 PM
272,Sofia Gurko,Starbucks,1603-141846,,LS,Vas Lefski Bulvd and Gurko street,Vas Lefski Bulvd and Gurko street,,,Sofia,23,BG,,"(42.697624206543, 23.3222846984863)",42.697624206542969,23.322284698486328,FLE Standard Time,120,GMT+2:00 Europe/Sofia,12/08/2013 05:41:59 PM
273,Nansen and Levski,Starbucks,1370-137876,,LS,V Lefski Blvd & Frityof Nansen,V Lefski Blvd & Frityof Nansen,,,Sofia,23,BG,,"(42.6872749328613, 23.3214740753174)",42.687274932861328,23.321474075317383,FLE Standard Time,120,GMT+2:00 Europe/Sofia,12/08/2013 05:41:59 PM
313,Harbour Bay,Starbucks,31288-104391,,LS,East Bay St. (Eastern Rd & Fowler St),East Bay St. (Eastern Rd & Fowler St),,,Nassau,NS,BS,,"(25.0740795135498, -77.3163528442383)",25.074079513549805,-77.316352844238281,Eastern Standard Time,-300,GMT-05:00 America/Nassau,12/08/2013 05:41:59 PM
315,Palmdale RCA Building,Starbucks,31197-102257,,LS,Rosetta St. Fifth Terrace & Patton St,Rosetta St. Fifth Terrace & Patton St,,,Nassau,NS,BS,,"(25.0678596496582, -77.3279266357422)",25.067859649658203,-77.327926635742188,Eastern Standard Time,-300,GMT-05:00 America/Nassau,12/08/2013 05:41:59 PM
317,Reef Atlantis,Starbucks,32202-107597,,LS,Paradise Island,Paradise Island,,,Nassau,NS,BS,,"(25.0859508514404, -77.3277587890625)",25.08595085144043,-77.3277587890625,Eastern Standard Time,-300,GMT-05:00 America/Nassau,12/08/2013 05:41:59 PM
320,Marina Village at Atlantis,Starbucks,30656-99475,,LS,"Marina Village, 9",Marina Village,9,,Nassau,NS,BS,,"(25.0825290679932, -77.3192367553711)",25.082529067993164,-77.3192367553711,Eastern Standard Time,-300,GMT-05:00 America/Nassau,12/08/2013 05:41:59 PM
326,Safeway - Nelson #133,Starbucks,74845-100503,250-352-9710,LS,211 Anderson Street,211 Anderson Street,,,Nelson,BC,CA,V1L 3X8,"(49.5001525878906, -117.283271789551)",49.500152587890625,-117.28327178955078,Pacific Standard Time,-480,GMT-08:00 America/Vancouver,12/08/2013 05:41:59 PM
329,Arbutus & Valley,Starbucks,4633-99432,604-261-5447,CO,4635 Arbutus Street,4635 Arbutus Street,,,Vancouver,BC,CA,V6J 4A3,"(49.2447738647461, -123.15389251709)",49.244773864746094,-123.15389251708984,Pacific Standard Time,-480,GMT-08:00 America/Vancouver,12/08/2013 05:41:59 PM
330,Safeway - Brandon # 604,Starbucks,74896-100388,204-726-8014,LS,921 18th St NE,921 18th St NE,,,Brandon,MB,CA,R7A 6T2,"(49.8355751037598, -99.9616622924805)",49.835575103759766,-99.961662292480469,Central Standard Time,-360,GMT-06:00 America/Winnipeg,12/08/2013 05:41:59 PM
331,Cambie St & 39th Ave,Starbucks,4644-99427,604-321-1042,CO,5504 Cambie Street,5504 Cambie Street,,,Vancouver,BC,CA,V5Z 3A2,"(49.235237121582, -123.115715026855)",49.235237121582031,-123.11571502685547,Pacific Standard Time,-480,GMT-08:00 America/Vancouver,12/08/2013 05:41:59 PM
333,Dobbin Rd - Westbank TC,Starbucks,4659-100573,250-707-1720,CO,"2475 Dobbin Road, 30, Westbank Town Centre",2475 Dobbin Road,30,Westbank Town Centre,West Kelowna,BC,CA,V4T 2B9,"(49.8282318115234, -119.628631591797)",49.828231811523438,-119.62863159179688,Pacific Standard Time,-480,GMT-08:00 America/Vancouver,12/08/2013 05:41:59 PM
334,Save-on-Foods - Fort McMurray,Starbucks,74933-102399,780-791-3995,LS,131 Signal Rd,131 Signal Rd,,,Fort McMurray,AB,CA,T9H 4N6,"(56.730354309082, -111.426780700684)",56.730354309082031,-111.42678070068359,Mountain Standard Time,-420,GMT-07:00 America/Edmonton,12/08/2013 05:41:59 PM
336,West Lethbridge Towne Centre,Starbucks,4628-97843,403-328-3613,CO,"550 University Dr West, West Lethbridge Towne Centre",550 University Dr West,,West Lethbridge Towne Centre,Lethbridge,AB,CA,T1J 4T3,"(49.6927337646484, -112.891792297363)",49.692733764648438,-112.89179229736328,Mountain Standard Time,-420,GMT-07:00 America/Edmonton,12/08/2013 05:41:59 PM
337,631 Commissioners Rd E,Starbucks,4674-100799,519-649-1444,CO,631 Commissioners Road East,631 Commissioners Road East,,,London,ON,CA,N6C 2V1,"(42.957763671875, -81.2328872680664)",42.957763671875,-81.2328872680664,Eastern Standard Time,-300,GMT-05:00 America/Toronto,12/08/2013 05:41:59 PM
338,Wolf Willow,Starbucks,4622-97838,780-444-4780,CO,"6873 170th St. NW, Wolf Willow Shopping Centre",6873 170th St. NW,,Wolf Willow Shopping Centre,Edmonton,AB,CA,T5T 4W5,"(53.5041351318359, -113.61474609375)",53.504135131835938,-113.61474609375,Mountain Standard Time,-420,GMT-07:00 America/Edmonton,12/08/2013 05:41:59 PM
341,Atrium 1 - 5th Ave & 8th St,Starbucks,4735-104203,403-237-9209,CO,"839 5Th Avenue SW, Atruim I",839 5Th Avenue SW,,Atruim I,Calgary,AB,CA,T2P 3C8,"(51.0487403869629, -114.080879211426)",51.048740386962891,-114.08087921142578,Mountain Standard Time,-420,GMT-07:00 America/Edmonton,12/08/2013 05:41:59 PM
344,Matrix Hotel,Starbucks,4857-108302,(780) 441-1099,CO,10001 - 107th Street,10001 - 107th Street,,,Edmonton,AB,CA,T5J 1J1,"(53.5390281677246, -113.504386901855)",53.539028167724609,-113.50438690185547,Mountain Standard Time,-420,GMT-07:00 America/Edmonton,12/08/2013 05:41:59 PM
345,52St & McIvor Blvd SE,Starbucks,4853-107841,(403)257-3882,CO,"15566 McIvor Boulevard, 500, Copperfield Corner",15566 McIvor Boulevard,500,Copperfield Corner,Calgary,AB,CA,T2Z 4Y2,"(50.9132423400879, -113.95036315918)",50.913242340087891,-113.95036315917969,Mountain Standard Time,-420,GMT-07:00 America/Edmonton,12/08/2013 05:41:59 PM
346,Hull's Corner-Jacklin & Langford,Starbucks,4658-100562,250-478-7878,CO,"2972 Jacklin Road, Hull's Corner",2972 Jacklin Road,,Hull's Corner,Langford,BC,CA,V9B 0A3,"(48.4423484802246, -123.510955810547)",48.442348480224609,-123.51095581054688,Pacific Standard Time,-480,GMT-08:00 America/Vancouver,12/08/2013 05:41:59 PM
347,Tsain-Ko Village Sechelt,Starbucks,4673-99704,604-740-8144,CO,"5500 Sunshine Coast Highway, Tsain-Ko Village",5500 Sunshine Coast Highway,,Tsain-Ko Village,Sechelt,BC,CA,V0N 3A1,"(49.4739837646484, -123.747566223145)",49.473983764648438,-123.74756622314453,Pacific Standard Time,-480,GMT-08:00 America/Vancouver,12/08/2013 05:41:59 PM
349,Red Deer Village,Starbucks,4631-97848,403-340-3145,CO,"6380 - 50th Ave, 400, Red Deer Village",6380 - 50th Ave,400,Red Deer Village,Red Deer,AB,CA,T4N 4C6,"(52.2880592346191, -113.814445495605)",52.288059234619141,-113.81444549560547,Mountain Standard Time,-420,GMT-07:00 America/Edmonton,12/08/2013 05:41:59 PM
351,Sunridge Mall - Level 1,Starbucks,4725-99845,403-233-7103,CO,"2525 36th St. N.E., 160",2525 36th St. N.E.,160,,Calgary,AB,CA,T1Y 5T4,"(51.0739479064941, -113.984527587891)",51.073947906494141,-113.98452758789063,Mountain Standard Time,-420,GMT-07:00 America/Edmonton,12/08/2013 05:41:59 PM
354,599 Taylor Kidd Blvd,Starbucks,4694-102072,613-634-1509,CO,"599 Taylor Kidd Blvd, Unit 6",599 Taylor Kidd Blvd,Unit 6,,Kingston,ON,CA,K7M 0A2,"(44.2504081726074, -76.5673141479492)",44.250408172607422,-76.567314147949219,Eastern Standard Time,-300,GMT-05:00 America/Toronto,12/08/2013 05:41:59 PM
355,99th Ave & 105 Street,Starbucks,4672-100582,780-429-9661,CO,"10504 99 Avenue, 101",10504 99 Avenue,101,,Edmonton,AB,CA,T5K 1B2,"(53.5374526977539, -113.501426696777)",53.537452697753906,-113.50142669677734,Mountain Standard Time,-420,GMT-07:00 America/Edmonton,12/08/2013 05:41:59 PM
356,Tandem - Dawson & Gilmore,Starbucks,4660-100750,604-299-2820,CO,"4122 Dawson Street, The Tandem",4122 Dawson Street,,The Tandem,Burnaby,BC,CA,V5C 0A4,"(49.2642860412598, -123.01375579834)",49.264286041259766,-123.01375579833984,Pacific Standard Time,-480,GMT-08:00 America/Vancouver,12/08/2013 05:41:59 PM
357,Crystal Lodge,Starbucks,4617-98138,604-905-5560,CO,"4154 Village Green, Unit 10, Crystal Lodge",4154 Village Green,Unit 10,Crystal Lodge,Whistler,BC,CA,V0N 1B4,"(50.1142616271973, -122.955917358398)",50.114261627197266,-122.95591735839844,Pacific Standard Time,-480,GMT-08:00 America/Vancouver,12/08/2013 05:41:59 PM
359,Montreux-2nd & Yukon,Starbucks,4692-101458,604-708-1507,CO,2035 Yukon St,2035 Yukon St,,,Vancouver,BC,CA,V5Y 3W3,"(49.2672882080078, -123.112945556641)",49.267288208007812,-123.11294555664063,Pacific Standard Time,-480,GMT-08:00 America/Vancouver,12/08/2013 05:41:59 PM
360,Trans Can Hwy & 13th Ave SE,Starbucks,4677-101293,403-528-8932,CO,1296 Trans Canada Hwy SE,1296 Trans Canada Hwy SE,,,Medicine Hat,AB,CA,T1B 1J5,"(50.006893157959, -110.664939880371)",50.006893157958984,-110.66493988037109,Mountain Standard Time,-420,GMT-07:00 America/Edmonton,12/08/2013 05:41:59 PM
362,Eagle Ridge - Lansdowne & Guildford,Starbucks,4655-100369,604-464-1408,CO,1192 Lansdowne Drive,1192 Lansdowne Drive,,,Coquitlam,BC,CA,V3E 1J7,"(49.2837600708008, -122.810707092285)",49.283760070800781,-122.81070709228516,Pacific Standard Time,-480,GMT-08:00 America/Vancouver,12/08/2013 05:41:59 PM
363,Steveston - No. 1 & Bayview,Starbucks,4687-100789,604-204-0288,CO,"4010 Bayview Street, 105, Imperial Landing",4010 Bayview Street,105,Imperial Landing,Richmond,BC,CA,V7E 6T5,"(49.1240196228027, -123.180854797363)",49.124019622802734,-123.18085479736328,Pacific Standard Time,-480,GMT-08:00 America/Vancouver,12/08/2013 05:41:59 PM
364,King & Shaw,Starbucks,4646-98483,416-979-1953,CO,"1005 King St W, Unit 7",1005 King St W,Unit 7,,Toronto,ON,CA,M6G 1B9,"(43.6412811279297, -79.4147644042969)",43.641281127929688,-79.414764404296875,Eastern Standard Time,-300,GMT-05:00 America/Toronto,12/08/2013 05:41:59 PM
365,949 Fort William Road,Starbucks,4621-95876,807-473-4226,CO,"949 Fort William Road, D8, Thunder Bay Centre",949 Fort William Road,D8,Thunder Bay Centre,Thunder Bay,ON,CA,P7B 3A6,"(48.4019927978516, -89.2411727905273)",48.401992797851562,-89.241172790527344,Eastern Standard Time,-300,GMT-05:00 America/Toronto,12/08/2013 05:41:59 PM
369,Columbia St & 3rd Ave - Kamloops,Starbucks,4632-98607,250-828-1357,CO,300 Columbia Street,300 Columbia Street,,,Kamloops,BC,CA,V2C 6L1,"(50.6717185974121, -120.334136962891)",50.671718597412109,-120.33413696289063,Pacific Standard Time,-480,GMT-08:00 America/Vancouver,12/08/2013 05:41:59 PM
370,Suncor main floor,Starbucks,4587-96728,4032940610,CO,"111 5th Ave SW, Petro Canada Centre",111 5th Ave SW,,Petro Canada Centre,Calgary,AB,CA,T2P 3Y6,"(51.048210144043, -114.063568115234)",51.048210144042969,-114.06356811523438,Mountain Standard Time,-420,GMT-07:00 America/Edmonton,12/08/2013 05:41:59 PM
373,247 King St N,Starbucks,4647-99935,519-886-0101,CO,247 King Street North,247 King Street North,,,Waterloo,ON,CA,N2J 2Y8,"(43.4763603210449, -80.5251998901367)",43.476360321044922,-80.525199890136719,Eastern Standard Time,-300,GMT-05:00 America/Toronto,12/08/2013 05:41:59 PM
376,West Central & 15th Avenue - PG,Starbucks,4590-97211,250-561-2532,CO,"1477 West Central, City Gate Centre",1477 West Central,,City Gate Centre,Prince George,BC,CA,V2M 5S5,"(53.9109230041504, -122.782936096191)",53.910923004150391,-122.78293609619141,Pacific Standard Time,-480,GMT-08:00 America/Vancouver,12/08/2013 05:41:59 PM
378,242 Queen St S,Starbucks,4635-99050,905-286-9494,CO,242 Queen Street South,242 Queen Street South,,,Mississauga,ON,CA,L5M 1L5,"(43.5802574157715, -79.7119979858398)",43.580257415771484,-79.711997985839844,Eastern Standard Time,-300,GMT-05:00 America/Toronto,12/08/2013 05:41:59 PM
379,7787 Yonge St,Starbucks,4645-99110,905-762-9889,CO,"7787 Yonge Street, Thornhill Mews",7787 Yonge Street,,Thornhill Mews,Thornhill,ON,CA,L3T 7L2,"(43.8171043395996, -79.4243011474609)",43.817104339599609,-79.424301147460938,Eastern Standard Time,-300,GMT-05:00 America/Toronto,12/08/2013 05:41:59 PM
324,Safeway - Edmonton #881,Starbucks,74878-100505,780-483-3255,LS,15007 Stoney plain Rd NW,15007 Stoney plain Rd NW,,,Edmonton,AB,CA,T5P 4W1,"(53.5401573181152, -113.57886505127)",53.540157318115234,-113.57886505126953,Mountain Standard Time,-420,GMT-07:00 America/Edmonton,12/08/2013 05:41:59 PM
325,Safeway - Vancouver #84,Starbucks,74841-100500,604-493-0090,LS,3410 Kingsway Street,3410 Kingsway Street,,,vancouver,BC,CA,V5R 5L4,"(49.2320594787598, -123.032936096191)",49.232059478759766,-123.03293609619141,Pacific Standard Time,-480,GMT-08:00 America/Vancouver,12/08/2013 05:41:59 PM
327,Safeway - Vancouver #189,Starbucks,74843-99493,6048730225,LS,1780 E Broadway,1780 E Broadway,,,Vancouver,BC,CA,V5N 1W3,"(49.2619247436523, -123.068222045898)",49.261924743652344,-123.06822204589844,Pacific Standard Time,-480,GMT-08:00 America/Vancouver,12/08/2013 05:41:59 PM
332,Safeway - Burnaby #121,Starbucks,74839-99492,604-420-3420,LS,9855 Austin Rd,9855 Austin Rd,,,Burnaby,BC,CA,V3J 1N4,"(49.2516479492188, -122.896018981934)",49.25164794921875,-122.89601898193359,Pacific Standard Time,-480,GMT-08:00 America/Vancouver,12/08/2013 05:41:59 PM
339,Safeway - Edmonton #838,Starbucks,74935-102407,780-451-1860,LS,"601, 111 Ave. & Groat Rd","601, 111 Ave. & Groat Rd",,,Edmonton,AB,CA,T5M 3L7,"(53.5595512390137, -113.553619384766)",53.559551239013672,-113.55361938476563,Mountain Standard Time,-420,GMT-07:00 America/Edmonton,12/08/2013 05:41:59 PM
350,Safeway - Calgary #276,Starbucks,79566-103261,403-236-1210,LS,7740 18th Street SE,7740 18th Street SE,,,Calgary,AB,CA,T2C 2N5,"(50.9845085144043, -114.014587402344)",50.9845085144043,-114.01458740234375,Mountain Standard Time,-420,GMT-07:00 America/Edmonton,12/08/2013 05:41:59 PM
352,Safeway - Cranbrook #2271,Starbucks,74943-103267,,LS,1200 Baker Street,1200 Baker Street,,,Cranbrook,BC,CA,V1C 1A8,"(49.5121765136719, -115.765228271484)",49.512176513671875,-115.76522827148438,US Mountain Standard Time,-420,GMT+000000 America/Dawson_Cree,12/08/2013 05:41:59 PM
353,Safeway - Edmonton #808,Starbucks,74961-102938,,LS,8118 118th Avenue NW,8118 118th Avenue NW,,,Edmonton,AB,CA,T5B 0S1,"(53.5713386535645, -113.466773986816)",53.571338653564453,-113.46677398681641,Mountain Standard Time,-420,GMT-07:00 America/Edmonton,12/08/2013 05:41:59 PM
361,Safeway - Calgary #2730,Starbucks,74854-100260,,LS,Richmond Road & 37th St,Richmond Road & 37th St,,,Calgary,AB,CA,T2J 6S1,"(51.0207481384277, -114.141998291016)",51.020748138427734,-114.14199829101563,Mountain Standard Time,-420,GMT-07:00 America/Edmonton,12/08/2013 05:41:59 PM
366,Safeway-Langley #59,Starbucks,74754-97377,6045333291,LS,6153 200th St,6153 200th St,,,Langley,BC,CA,V2Y 1A2,"(49.1147575378418, -122.670707702637)",49.1147575378418,-122.67070770263672,Pacific Standard Time,-480,GMT-08:00 America/Vancouver,12/08/2013 05:41:59 PM
368,Safeway Fort Saskatchewan #846,Starbucks,74830-100386,780-998-4065,LS,Hwy-15 & 86th Avenue,Hwy-15 & 86th Avenue,,,Fort Saskatchewan,AB,CA,T8L 4P4,"(53.6933288574219, -113.212646484375)",53.693328857421875,-113.212646484375,Mountain Standard Time,-420,GMT-07:00 America/Edmonton,12/08/2013 05:41:59 PM
371,Safeway - Vancouver #110,Starbucks,74820-99490,604-263-2575,LS,650 W 41st Ave,650 W 41st Ave,,,Vancouver,BC,CA,V5Z 2M9,"(49.232063293457, -123.11971282959)",49.232063293457031,-123.11971282958984,Pacific Standard Time,-480,GMT-08:00 America/Vancouver,12/08/2013 05:41:59 PM
374,Safeway-Chilliwack #193,Starbucks,74844-96803,604-858-8115,LS,45610 Luckakuck Way,45610 Luckakuck Way,,,Chilliwack,BC,CA,V2R 1A2,"(49.1396255493164, -121.963180541992)",49.139625549316406,-121.96318054199219,Pacific Standard Time,-480,GMT-08:00 America/Vancouver,12/08/2013 05:41:59 PM
375,Safeway - Edmonton #816,Starbucks,74842-99498,780-486-4242,LS,9710 170th Street NW,9710 170th Street NW,,,Edmonton,AB,CA,T5T 5L5,"(53.5343246459961, -113.617919921875)",53.534324645996094,-113.617919921875,Mountain Standard Time,-420,GMT-07:00 America/Edmonton,12/08/2013 05:41:59 PM
381,Corral Centre,Starbucks,4594-97209,204-727-2119,CO,"821 18th St N, Coral Centre",821 18th St N,,Coral Centre,Brandon,MB,CA,R7A 7S1,"(49.8652458190918, -99.9612731933594)",49.8652458190918,-99.961273193359375,Central Standard Time,-360,GMT-06:00 America/Winnipeg,12/08/2013 05:41:59 PM
382,Southglen,Starbucks,4699-102549,204-253-0401,CO,"726 St. Anne's Road, 104, Bldg J, Southglen Shopping Centre",726 St. Anne's Road,"104, Bldg J",Southglen Shopping Centre,Winnipeg,MB,CA,R2N 0A2,"(49.8235244750977, -97.0836486816406)",49.823524475097656,-97.083648681640625,Central Standard Time,-360,GMT-06:00 America/Winnipeg,12/08/2013 05:41:59 PM
383,Broadway Ave & 10 Street E,Starbucks,4639-99653,306-651-7211,CO,737 Broadway Avenue,737 Broadway Avenue,,,Saskatoon,SK,CA,S7N 1B3,"(52.1179504394531, -106.656387329102)",52.117950439453125,-106.65638732910156,Canada Central Standard Time,-360,GMT-06:00 America/Regina,12/08/2013 05:41:59 PM
384,Hwy 97 at Leathead-Kelowna,Starbucks,4640-99641,250-860-7632,CO,2709 Highway 97 N,2709 Highway 97 N,,,Kelowna,BC,CA,V1X 4J8,"(49.8957443237305, -119.413246154785)",49.895744323730469,-119.41324615478516,Pacific Standard Time,-480,GMT-08:00 America/Vancouver,12/08/2013 05:41:59 PM
385,23 Ave & 111 St,Starbucks,4630-99174,780-461-4708,CO,"2309 - 111th Street, Heritage",2309 - 111th Street,,Heritage,Edmonton,AB,CA,T6J 5E5,"(53.4556007385254, -113.515472412109)",53.455600738525391,-113.51547241210938,Mountain Standard Time,-420,GMT-07:00 America/Edmonton,12/08/2013 05:41:59 PM
386,121 Division Street,Starbucks,4648-99931,613-548-4747,CO,121 Division Street,121 Division Street,,,Kingston,ON,CA,K7L 3M5,"(44.2314758300781, -76.4926376342773)",44.231475830078125,-76.492637634277344,Eastern Standard Time,-300,GMT-05:00 America/Toronto,12/08/2013 05:41:59 PM
388,Safeway - Wetaskiwin #862,Starbucks,79531-103262,,LS,3901 56th Street,3901 56th Street,,,Wetaskiwin,AB,CA,T9A 2B1,"(52.9587936401367, -113.39005279541)",52.958793640136719,-113.39005279541016,Mountain Standard Time,-420,GMT-07:00 America/Edmonton,12/08/2013 05:41:59 PM
389,Safeway-Richmond #191,Starbucks,79539-97379,,LS,8671 # Road,8671 # Road,,,Richmond,BC,CA,V7C 1V2,"(49.1494750976563, -123.182312011719)",49.14947509765625,-123.18231201171875,Pacific Standard Time,-480,GMT-08:00 America/Vancouver,12/08/2013 05:41:59 PM
391,5067 Dixie Rd,Starbucks,4657-100002,905-614-1731,CO,5067 Dixie Road,5067 Dixie Road,,,Mississauga,ON,CA,L4W 5S6,"(43.6368942260742, -79.6210632324219)",43.636894226074219,-79.621063232421875,Eastern Standard Time,-300,GMT-05:00 America/Toronto,12/08/2013 05:41:59 PM
392,Bloor & Ellis,Starbucks,4702-102446,416-761-9402,CO,1997 Bloor St W,1997 Bloor St W,,,Toronto,ON,CA,M6S 1M4,"(43.6522064208984, -79.4709243774414)",43.652206420898438,-79.4709243774414,Eastern Standard Time,-300,GMT-05:00 America/Toronto,12/08/2013 05:41:59 PM
393,1011 Upper Middle Rd E,Starbucks,4716-103129,905-842-2629,CO,"1011 Upper Middle Road East, Unit C-14W",1011 Upper Middle Road East,Unit C-14W,,Oakville,ON,CA,L6H 4L5,"(43.4830551147461, -79.696174621582)",43.483055114746094,-79.696174621582031,Eastern Standard Time,-300,GMT-05:00 America/Toronto,12/08/2013 05:41:59 PM
394,Safeway-Winnipeg #359,Starbucks,70329-139744,,LS,1610 Ness Avenue,1610 Ness Avenue,,,Winnipeg,MB,CA,R3J 3X3,"(49.8823089599609, -97.2053375244141)",49.882308959960938,-97.205337524414062,Central Standard Time,-360,GMT-06:00 America/Winnipeg,12/08/2013 05:41:59 PM
395,University of Alberta - Cameron Lib,Starbucks,5015-145348,,LS,89 Ave NW & 116 Street NW,89 Ave NW & 116 Street NW,,,Edmonton,AB,CA,T6G 2H6,"(53.5247688293457, -113.530616760254)",53.5247688293457,-113.53061676025391,Mountain Standard Time,-420,GMT-07:00 America/Edmonton,12/08/2013 05:41:59 PM
396,Longos Aurora,Starbucks,5023-145349,,LS,650 Wellington St E,650 Wellington St E,,,Aurora,ON,CA,L4G 0K3,"(44.0071983337402, -79.4442977905273)",44.007198333740234,-79.444297790527344,Eastern Standard Time,-300,GMT-05:00 America/Toronto,12/08/2013 05:41:59 PM
398,Safeway-Calgary #874,Starbucks,4134-141704,,LS,1450 85 Street SW,1450 85 Street SW,,,Calgary,AB,CA,T3H 4A3,"(51.0416564941406, -114.210845947266)",51.041656494140625,-114.21084594726563,Mountain Standard Time,-420,GMT-07:00 America/Edmonton,12/08/2013 05:41:59 PM
399,Marriott Gateway,Starbucks,3997-146205,9053299360,LS,6755 Fallsview Blvd,6755 Fallsview Blvd,,,Niagara Falls,ON,CA,L2G 3W7,"(43.0770835876465, -79.0820693969727)",43.077083587646484,-79.082069396972656,Eastern Standard Time,-300,GMT-05:00 America/New_York,12/08/2013 05:41:59 PM
400,Safeway-Kelowna #7,Starbucks,74774-97794,250-860-4424,LS,2339 Hwy-97,2339 Hwy-97,,,Kelowna,BC,CA,V1X 4H9,"(49.8827209472656, -119.431991577148)",49.882720947265625,-119.43199157714844,Pacific Standard Time,-480,GMT-08:00 America/Vancouver,12/08/2013 05:41:59 PM
402,Avenue & Roe,Starbucks,4606-97784,416-787-9353,CO,1887 Avenue Road,1887 Avenue Road,,,Toronto,ON,CA,M5M 3Z9,"(43.7326431274414, -79.4192199707031)",43.732643127441406,-79.419219970703125,Eastern Standard Time,-300,GMT-05:00 America/Toronto,12/08/2013 05:41:59 PM
403,7333 Woodbine Ave,Starbucks,4609-97961,905-513-6767,CO,"7333 Woodbine Avenue, Unit 1",7333 Woodbine Avenue,Unit 1,,Markham,ON,CA,L3R 1A7,"(43.8226051330566, -79.3505935668945)",43.822605133056641,-79.350593566894531,Eastern Standard Time,-300,GMT-05:00 America/Toronto,12/08/2013 05:41:59 PM
404,369 - 377 Highway 8,Starbucks,4607-98090,905-664-9494,CO,"369-377 Hwy 8, Unit B2, Worsley Plaza",369-377 Hwy 8,Unit B2,Worsley Plaza,Stoney Creek,ON,CA,L8G 1E7,"(43.2195358276367, -79.725715637207)",43.219535827636719,-79.725715637207031,Eastern Standard Time,-300,GMT-05:00 America/Toronto,12/08/2013 05:41:59 PM
405,Safeway-Airdrie #281,Starbucks,74745-97386,403-948-4838,LS,505 Main Street,505 Main Street,,,Airdrie,AB,CA,T4B 2B8,"(51.2955207824707, -114.013572692871)",51.2955207824707,-114.01357269287109,Mountain Standard Time,-420,GMT-07:00 America/Edmonton,12/08/2013 05:41:59 PM
407,Safeway-Edmonton #877,Starbucks,74760-97397,780-435-5132,LS,111 St NW & 51 Avenue NW,111 St NW & 51 Avenue NW,,,Edmonton,AB,CA,T6H 4M8,"(53.4860610961914, -113.522750854492)",53.486061096191406,-113.52275085449219,Mountain Standard Time,-420,GMT-07:00 America/Edmonton,12/08/2013 05:41:59 PM
408,Safeway-Calgary #288,Starbucks,74746-97383,403-255-2755,LS,1600 90th Avenue SW,1600 90th Avenue SW,,,Calgary,AB,CA,T2V 5A8,"(50.9723167419434, -114.098327636719)",50.972316741943359,-114.09832763671875,Mountain Standard Time,-420,GMT-07:00 America/Edmonton,12/08/2013 05:41:59 PM
409,Safeway-Spruce Grove #857,Starbucks,74784-97801,780-962-9183,LS,94 McLeod Avenue,94 McLeod Avenue,,,Spruce Grove,AB,CA,T7X 1R2,"(53.5423316955566, -113.911033630371)",53.542331695556641,-113.91103363037109,Mountain Standard Time,-420,GMT-07:00 America/Edmonton,12/08/2013 05:41:59 PM
414,Dundarave Village Mews,Starbucks,4592-97024,604-913-2171,CO,"2416 Marine Drive, Dundarave Village Mews",2416 Marine Drive,,Dundarave Village Mews,West Vancouver,BC,CA,V7V 1L1,"(49.3341217041016, -123.179901123047)",49.334121704101562,-123.17990112304688,Pacific Standard Time,-480,GMT-08:00 America/Vancouver,12/08/2013 05:41:59 PM
415,Safeway-Calgary #280,Starbucks,74744-97387,,LS,2525 Woodview Drive SW,2525 Woodview Drive SW,,,Calgary,AB,CA,T2W 4N4,"(50.9405288696289, -114.119209289551)",50.940528869628906,-114.11920928955078,Mountain Standard Time,-420,GMT-07:00 America/Edmonton,12/08/2013 05:41:59 PM
416,Main St & Front St - Penticton,Starbucks,4616-98531,250-770-1643,CO,202 Main Street,202 Main Street,,,Penticton,BC,CA,V2A 5B2,"(49.5002975463867, -119.593223571777)",49.500297546386719,-119.59322357177734,Pacific Standard Time,-480,GMT-08:00 America/Vancouver,12/08/2013 05:41:59 PM
417,16th & MacDonald St,Starbucks,4591-97339,604-733-4601,CO,3190 MacDonald Street,3190 MacDonald Street,,,Vancouver,BC,CA,V6K 4W7,"(49.2579193115234, -123.168212890625)",49.257919311523438,-123.168212890625,Pacific Standard Time,-480,GMT-08:00 America/Vancouver,12/08/2013 05:41:59 PM
420,Longos Fairview,Starbucks,79269-99848,905-637-3804,LS,1225 Fairview St,1225 Fairview St,,,Burlington,ON,CA,L7S 1Y3,"(43.3294563293457, -79.8196182250977)",43.3294563293457,-79.819618225097656,Eastern Standard Time,-300,GMT-05:00 America/Toronto,12/08/2013 05:41:59 PM
421,Kingsway Ave & 117St,Starbucks,4618-98388,780-451-4773,CO,"11625 Kingsway Avenue, Kingsway Shopping Centre",11625 Kingsway Avenue,,Kingsway Shopping Centre,Edmonton,AB,CA,T5G 3E8,"(53.5658073425293, -113.520881652832)",53.5658073425293,-113.52088165283203,Mountain Standard Time,-420,GMT-07:00 America/Edmonton,12/08/2013 05:41:59 PM
422,Alder Crossing - 148th & KGH,Starbucks,4596-97669,604-531-8535,CO,"3288 King George Hwy, Unit #1, Alder Crossing",3288 King George Hwy,Unit #1,Alder Crossing,Surrey,BC,CA,V4P 1A5,"(49.0612525939941, -122.812355041504)",49.061252593994141,-122.81235504150391,Pacific Standard Time,-480,GMT-08:00 America/Vancouver,12/08/2013 05:41:59 PM
423,Portico - Granville St & 7th Ave,Starbucks,4603-97841,604-732-8961,CO,"2288 Granville Street, Verona at Portico",2288 Granville Street,,Verona at Portico,Vancouver,BC,CA,V6H 4H7,"(49.265567779541, -123.138168334961)",49.265567779541016,-123.13816833496094,Pacific Standard Time,-480,GMT-08:00 America/Vancouver,12/08/2013 05:41:59 PM
424,Tribeca - 152nd & KGB,Starbucks,4593-97123,604-531-7641,CO,2670 152nd St,2670 152nd St,,,Surrey,BC,CA,V4P 1M8,"(49.0502700805664, -122.80086517334)",49.050270080566406,-122.80086517333984,Pacific Standard Time,-480,GMT-08:00 America/Vancouver,12/08/2013 05:41:59 PM
426,Bloor & Thompson,Starbucks,4613-98127,416-231-6116,CO,3079-3081 Bloor St W,3079-3081 Bloor St W,,,Toronto,ON,CA,M8X 1C7,"(43.6465797424316, -79.5140380859375)",43.646579742431641,-79.5140380859375,Eastern Standard Time,-300,GMT-05:00 America/Toronto,12/08/2013 05:41:59 PM
427,Safeway - Cochrane #2219,Starbucks,74829-100385,403-851-1290,LS,304 5th Avenue W,304 5th Avenue W,,,Cochrane,AB,CA,T4C 2A5,"(51.1852188110352, -114.476188659668)",51.185218811035156,-114.47618865966797,Mountain Standard Time,-420,GMT-07:00 America/Edmonton,12/08/2013 05:41:59 PM
429,Six Points Plaza-5230 Dundas St W,Starbucks,4608-98091,416-233-0440,CO,"5230 Dundas St W, Six Points Plaza",5230 Dundas St W,,Six Points Plaza,Toronto,ON,CA,M9B 1A8,"(43.6396217346191, -79.5375137329102)",43.639621734619141,-79.537513732910156,Eastern Standard Time,-300,GMT-05:00 America/Toronto,12/08/2013 05:41:59 PM
431,Valley Centre,Starbucks,4577-96689,604-533-7015,CO,"20151 Fraser Highway, Valley Centre",20151 Fraser Highway,,Valley Centre,Langley,BC,CA,V3A 4E4,"(49.1064186096191, -122.662605285645)",49.106418609619141,-122.66260528564453,Pacific Standard Time,-480,GMT-08:00 America/Vancouver,12/08/2013 05:41:59 PM
432,41st Ave & Balsam St,Starbucks,4604-98136,604-267-7703,CO,2348 West 41st Ave,2348 West 41st Ave,,,Vancouver,BC,CA,V6M 2A4,"(49.2344551086426, -123.160568237305)",49.234455108642578,-123.16056823730469,Pacific Standard Time,-480,GMT-08:00 America/Vancouver,12/08/2013 05:41:59 PM
390,Safeway - Dawson Creek #819,Starbucks,74974-103270,250-782-2253,LS,11216 8th St,11216 8th St,,,Dawson Creek,BC,CA,V1G 3R4,"(55.7487335205078, -120.224494934082)",55.748733520507812,-120.22449493408203,US Mountain Standard Time,-420,GMT+000000 America/Dawson_Cree,12/08/2013 05:41:59 PM
401,Safeway-Surrey #92,Starbucks,74729-97793,604-594-7341,LS,7450 120 St,7450 120 St,,,Surrey,BC,CA,V3W 3M9,"(49.138298034668, -122.889099121094)",49.138298034667969,-122.88909912109375,Pacific Standard Time,-480,GMT-08:00 America/Vancouver,12/08/2013 05:41:59 PM
406,Safeway-Okotoks #2223,Starbucks,74752-97381,403-938-9341,LS,610 Big Rock Ln,610 Big Rock Ln,,,Okotoks,AB,CA,T0L 1T5,"(50.7170333862305, -113.980339050293)",50.717033386230469,-113.98033905029297,Mountain Standard Time,-420,GMT-07:00 America/Edmonton,12/08/2013 05:41:59 PM
410,Safeway-Surrey #62,Starbucks,74758-97376,604-589-4774,LS,8860 152 St,8860 152 St,,,Surrey,BC,CA,V3R 4E4,"(49.1636619567871, -122.800643920898)",49.163661956787109,-122.80064392089844,Pacific Standard Time,-480,GMT-08:00 America/Vancouver,12/08/2013 05:41:59 PM
411,Safeway-Surrey #47,Starbucks,74757-97374,604-535-8960,LS,"15355 24 Ave, 604-",15355 24 Ave,,604-,Surrey,BC,CA,V4A 2H9,"(49.0466728210449, -122.796684265137)",49.046672821044922,-122.79668426513672,Pacific Standard Time,-480,GMT-08:00 America/Vancouver,12/08/2013 05:41:59 PM
412,Safeway - Vancouver #114,Starbucks,74811-99382,,LS,890 West 25 Avenue,890 West 25 Avenue,,,Vancouver,BC,CA,V5Z 2E2,"(49.2486801147461, -123.126480102539)",49.248680114746094,-123.12648010253906,Pacific Standard Time,-480,GMT-08:00 America/Vancouver,12/08/2013 05:41:59 PM
419,Longos Brampton,Starbucks,79267-99847,,LS,7700 Hurontario St,7700 Hurontario St,,,Brampton,ON,CA,L6Y 4M3,"(43.6599426269531, -79.7256927490234)",43.659942626953125,-79.725692749023438,Eastern Standard Time,-300,GMT-05:00 America/Toronto,12/08/2013 05:41:59 PM
428,Safeway - Fort St John #820,Starbucks,74828-99754,250-261-5477,LS,9123 100th St,9123 100th St,,,Fort St John,BC,CA,V1J 3X3,"(56.238094329834, -120.847267150879)",56.238094329833984,-120.84726715087891,US Mountain Standard Time,-420,GMT+000000 America/Dawson_Cree,12/08/2013 05:41:59 PM
434,Safeway - Calgary #2211,Starbucks,74832-99496,403-210-0002,LS,1632 14 Avenue NW,1632 14 Avenue NW,,,Calgary,AB,CA,T2N 1M7,"(51.0645332336426, -114.099029541016)",51.064533233642578,-114.09902954101563,Mountain Standard Time,-420,GMT-07:00 America/Edmonton,12/08/2013 05:41:59 PM
435,Safeway-Stony Plain #823,Starbucks,74750-97800,,LS,4202 Southpark Drive,4202 Southpark Drive,,,Stony Plain,AB,CA,T7Z 1L1,"(53.5411567687988, -113.978927612305)",53.541156768798828,-113.97892761230469,Mountain Standard Time,-420,GMT-07:00 America/Edmonton,12/08/2013 05:41:59 PM
436,Safeway - Calgary #2117,Starbucks,74831-99495,403-240-1098,LS,2425 34 Avenue SW,2425 34 Avenue SW,,,Calgary,AB,CA,T2T 6E3,"(51.0227584838867, -114.116394042969)",51.022758483886719,-114.11639404296875,Mountain Standard Time,-420,GMT-07:00 America/Edmonton,12/08/2013 05:41:59 PM
438,Osborne Village,Starbucks,4605-94980,204-453-4700,CO,"481 River Avenue, Unit #1, Osborne Village",481 River Avenue,Unit #1,Osborne Village,Winnipeg,MB,CA,R3L 0C9,"(49.8790740966797, -97.1471939086914)",49.879074096679688,-97.1471939086914,Central Standard Time,-360,GMT-06:00 America/Winnipeg,12/08/2013 05:41:59 PM
440,Skylon Tower Base,Starbucks,75826-96571,905-356-2651,LS,5200 Robinson St,5200 Robinson St,,,Niagara Falls,ON,CA,L2G 2A3,"(43.0864944458008, -79.0796279907227)",43.086494445800781,-79.079627990722656,Eastern Standard Time,-300,GMT-05:00 America/New_York,12/08/2013 05:41:59 PM
441,Tsawwassen Ferry Terminal,Starbucks,4615-98529,604-943-6433,CO,"1 Ferry Causeway c/o BC Ferry Terminal, 20, Tsawwassen Quay Market",1 Ferry Causeway c/o BC Ferry Terminal,20,Tsawwassen Quay Market,Delta,BC,CA,V4M 4G5,"(49.0080451965332, -123.130409240723)",49.0080451965332,-123.13040924072266,Pacific Standard Time,-480,GMT-08:00 America/Vancouver,12/08/2013 05:41:59 PM
443,Safeway Kamloops #89,Starbucks,74812-99780,250-314-2811,LS,945 West Columbia,945 West Columbia,,,Kamloops,BC,CA,V2C 1L5,"(50.6695175170898, -120.352363586426)",50.669517517089844,-120.35236358642578,Pacific Standard Time,-480,GMT-08:00 America/Vancouver,12/08/2013 05:41:59 PM
444,Safeway-Kamloops #56,Starbucks,74753-97373,250-376-4129,LS,750 Fortune Dr,750 Fortune Dr,,,Kamloops,BC,CA,V2B 2L2,"(50.698600769043, -120.359146118164)",50.698600769042969,-120.35914611816406,Pacific Standard Time,-480,GMT-08:00 America/Vancouver,12/08/2013 05:41:59 PM
447,Terminal & Begg,Starbucks,4522-87720,604-696-6410,CO,753 Terminal Avenue,753 Terminal Avenue,,,Vancouver,BC,CA,V6A 2M2,"(49.2710342407227, -123.087738037109)",49.271034240722656,-123.08773803710938,Pacific Standard Time,-480,GMT-08:00 America/Vancouver,12/08/2013 05:41:59 PM
448,486 Hazeldean Road,Starbucks,4472-85804,613-836-3663,CO,486 Hazeldean Road,486 Hazeldean Road,,,Kanata,ON,CA,K2L 1V4,"(45.2965126037598, -75.8903350830078)",45.296512603759766,-75.890335083007812,Eastern Standard Time,-300,GMT-05:00 America/Toronto,12/08/2013 05:41:59 PM
449,Blue Mountain Village,Starbucks,75537-60379,705-444-4553,LS,156 Jozo Weider Blvd,156 Jozo Weider Blvd,,,Collingwood,ON,CA,L9Y 3Z2,"(44.5040969848633, -80.3117599487305)",44.504096984863281,-80.311759948730469,Eastern Standard Time,-300,GMT-05:00 America/Toronto,12/08/2013 05:41:59 PM
450,Safeway-Winnipeg #725,Starbucks,74687-94468,,LS,920 Jefferson Avenue,920 Jefferson Avenue,,,Winnipeg,MB,CA,R2P 1W1,"(49.944896697998, -97.1576995849609)",49.944896697998047,-97.157699584960938,Central Standard Time,-360,GMT-06:00 America/Winnipeg,12/08/2013 05:41:59 PM
455,City Square Mall,Starbucks,4562-96064,604-872-1201,CO,"555 W 12th Ave, 018, City Square Mall",555 W 12th Ave,018,City Square Mall,Vancouver,BC,CA,V5Z 3X7,"(49.2611198425293, -123.11563873291)",49.2611198425293,-123.11563873291016,Pacific Standard Time,-480,GMT-08:00 America/Vancouver,12/08/2013 05:41:59 PM
457,Deerfoot Meadows,Starbucks,4601-97847,403-253-4518,CO,"33 Heritage Meadows Way SE, Deerfoot Meadows",33 Heritage Meadows Way SE,,Deerfoot Meadows,Calgary,AB,CA,T2H 3B8,"(50.9836235046387, -114.041236877441)",50.983623504638672,-114.04123687744141,Mountain Standard Time,-420,GMT-07:00 America/Edmonton,12/08/2013 05:41:59 PM
459,2500 Appleby Line,Starbucks,4678-100978,905-336-4229,CO,"2500 Appleby Line, Building Pad A, Cornerstone Centre",2500 Appleby Line,Building Pad A,Cornerstone Centre,Burlington,ON,CA,L7L 0A2,"(43.4054946899414, -79.8080978393555)",43.405494689941406,-79.808097839355469,Eastern Standard Time,-300,GMT-05:00 America/Toronto,12/08/2013 05:41:59 PM
460,Safeway - Camrose #821,Starbucks,74971-103259,,LS,6800 48th Avenue,6800 48th Avenue,,,Camrose,AB,CA,T4V 4T1,"(53.0179824829102, -112.859115600586)",53.017982482910156,-112.85911560058594,Mountain Standard Time,-420,GMT-07:00 America/Edmonton,12/08/2013 05:41:59 PM
462,Safeway - Thunder Bay #682,Starbucks,74993-103264,,LS,1015 Dawson Road,1015 Dawson Road,,,Thunder Bay,ON,CA,P7B 5J4,"(48.4514770507813, -89.2537612915039)",48.45147705078125,-89.2537612915039,Eastern Standard Time,-300,GMT-05:00 America/Toronto,12/08/2013 05:41:59 PM
463,Safeway - Thunder Bay #681,Starbucks,74992-102425,,LS,115 West Arthur Street,115 West Arthur Street,,,Thunder Bay,ON,CA,P7E 5P7,"(48.3817481994629, -89.2794189453125)",48.381748199462891,-89.2794189453125,Eastern Standard Time,-300,GMT-05:00 America/Toronto,12/08/2013 05:41:59 PM
464,Safeway - Thunder Bay #664,Starbucks,74991-103263,,LS,70 North Court Street,70 North Court Street,,,Thunder Bay,ON,CA,P7B 2Z3,"(48.433479309082, -89.2249145507813)",48.433479309082031,-89.22491455078125,Eastern Standard Time,-300,GMT-05:00 America/Toronto,12/08/2013 05:41:59 PM
465,Oxford & Lougheed,Starbucks,4682-100790,604-464-0399,CO,2840 Oxford Street,2840 Oxford Street,,,Port Coquitlam,BC,CA,V3B 5L7,"(49.2638320922852, -122.766815185547)",49.263832092285156,-122.76681518554688,Pacific Standard Time,-480,GMT-08:00 America/Vancouver,12/08/2013 05:41:59 PM
466,Brookswood Village-200th & 40th,Starbucks,4721-103479,604-532-1260,CO,"4064 200th St, Brookswood Villaqge",4064 200th St,,Brookswood Villaqge,Langley,BC,CA,V3A 1K9,"(49.0762062072754, -122.6689453125)",49.076206207275391,-122.6689453125,Pacific Standard Time,-480,GMT-08:00 America/Vancouver,12/08/2013 05:41:59 PM
469,London Towne Square,Starbucks,4930-106303,4032500234,CO,"3545 32 Ave NE, 553, London Towne Square",3545 32 Ave NE,553,London Towne Square,Calgary,AB,CA,T1Y 6M6,"(51.0810508728027, -113.984237670898)",51.081050872802734,-113.98423767089844,Mountain Standard Time,-420,GMT-07:00 America/Edmonton,12/08/2013 05:41:59 PM
470,1981 Parkdale Ave. Unit D,Starbucks,4897-109785,(613) 342-8368,CO,1981 Parkdale Ave. Unit D,1981 Parkdale Ave. Unit D,,,Brockville,ON,CA,K6V 0B4,"(44.6146202087402, -75.683837890625)",44.614620208740234,-75.683837890625,Eastern Standard Time,-300,GMT-05:00 America/Toronto,12/08/2013 05:41:59 PM
471,1 Hespeler Rd,Starbucks,4886-107868,519-623-7893,CO,1 Hespeler Road,1 Hespeler Road,,,Cambridge,ON,CA,N1R 8L4,"(43.3742332458496, -80.3181838989258)",43.374233245849609,-80.318183898925781,Eastern Standard Time,-300,GMT-05:00 America/Toronto,12/08/2013 05:41:59 PM
473,Highway 16 & 75 Street,Starbucks,4959-105052,780 875 5394,CO,"7701 44th St Unit A Mail Box 709, COURIERS ONLY (NOT US/CANADA POST), Home Depot Power Centre",7701 44th St Unit A Mail Box 709,COURIERS ONLY (NOT US/CANADA POST),Home Depot Power Centre,Lloydminster,AB,CA,T9V 0X9,"(53.2775344848633, -110.056739807129)",53.277534484863281,-110.05673980712891,Mountain Standard Time,-420,GMT-07:00 America/Edmonton,12/08/2013 05:41:59 PM
474,Yonge & Eglinton- Minto Tower,Starbucks,4929-125664,416-488-1930,CO,"2193 Yonge Street, Unit Space C",2193 Yonge Street,Unit Space C,,Toronto,ON,CA,M4S 2V2,"(43.7055397033691, -79.3978576660156)",43.705539703369141,-79.397857666015625,Eastern Standard Time,-300,GMT-05:00 America/Toronto,12/08/2013 05:41:59 PM
475,3737 Major Mackenzie Dr,Starbucks,4791-104690,905-303-7097,CO,"3737 Major Mackenzie Drive, 101, Vellor Village",3737 Major Mackenzie Drive,101,Vellor Village,Vaughan,ON,CA,L4H 0A2,"(43.8444175720215, -79.5600738525391)",43.844417572021484,-79.560073852539062,Eastern Standard Time,-300,GMT-05:00 America/Toronto,12/08/2013 05:41:59 PM
477,Laird & Wicksteed,Starbucks,4667-100881,416-429-8827,CO,"65 Wicksteed Ave, C",65 Wicksteed Ave,C,,Toronto,ON,CA,M4G 4H9,"(43.7106781005859, -79.360969543457)",43.710678100585938,-79.360969543457031,Eastern Standard Time,-300,GMT-05:00 America/Toronto,12/08/2013 05:41:59 PM
478,3302 Woodroffe Avenue,Starbucks,4683-100798,613-823-9903,CO,3302 Woodroffe Avenue,3302 Woodroffe Avenue,,,Ottawa,ON,CA,K2J 4G5,"(45.2751312255859, -75.7187652587891)",45.275131225585938,-75.718765258789062,Eastern Standard Time,-300,GMT-05:00 America/Toronto,12/08/2013 05:41:59 PM
481,Safeway-Winnipeg #726,Starbucks,74867-97803,,LS,3900 Grant Avenue,3900 Grant Avenue,,,Winnipeg,MB,CA,R3R 3C2,"(49.8583488464355, -97.2638244628906)",49.858348846435547,-97.263824462890625,Central Standard Time,-360,GMT-06:00 America/Winnipeg,12/08/2013 05:41:59 PM
482,Safeway - Calgary #294,Starbucks,74942-102406,403-295-6895,LS,8120 Beddington Blvd Northwest,8120 Beddington Blvd Northwest,,,Calgary,AB,CA,T3K 2A8,"(51.1269035339355, -114.072235107422)",51.126903533935547,-114.07223510742188,Mountain Standard Time,-420,GMT-07:00 America/Edmonton,12/08/2013 05:41:59 PM
483,Safeway - Edmonton #2278,Starbucks,74970-102935,,LS,2304 109th Street NW,2304 109th Street NW,,,Edmonton,AB,CA,T6J 5E5,"(53.4549026489258, -113.510314941406)",53.454902648925781,-113.51031494140625,Mountain Standard Time,-420,GMT-07:00 America/Edmonton,12/08/2013 05:41:59 PM
484,170th St & 90th Ave NW,Starbucks,4680-101115,780-444-4813,CO,"17004 - 90th Avenue, Westgate Shopping Centre",17004 - 90th Avenue,,Westgate Shopping Centre,Edmonton,AB,CA,T5T 1L6,"(53.5253486633301, -113.616271972656)",53.525348663330078,-113.61627197265625,Mountain Standard Time,-420,GMT-07:00 America/Edmonton,12/08/2013 05:41:59 PM
485,Island Hwy & Mills Rd,Starbucks,4643-99833,250-248-9720,CO,"382 E Island Highway, Mills Road Plaza",382 E Island Highway,,Mills Road Plaza,Parksville,BC,CA,V9P 1K8,"(49.318603515625, -124.300720214844)",49.318603515625,-124.30072021484375,Pacific Standard Time,-480,GMT-08:00 America/Vancouver,12/08/2013 05:41:59 PM
487,4240 Innes Road,Starbucks,4666-100575,613-837-1815,CO,4240 Innes Road,4240 Innes Road,,,Orleans,ON,CA,K4A 5E6,"(45.457405090332, -75.4975738525391)",45.457405090332031,-75.497573852539062,Eastern Standard Time,-300,GMT-05:00 America/Toronto,12/08/2013 05:41:59 PM
437,Safeway - Grand Prairie #826,Starbucks,74840-100563,780-833-8620,LS,84th & 100th Street,84th & 100th Street,,,Grand Prairie,AB,CA,T8V 1L4,"(55.156177520752, -118.794937133789)",55.156177520751953,-118.79493713378906,Mountain Standard Time,-420,GMT-07:00 America/Edmonton,12/08/2013 05:41:59 PM
442,Grouse Mountain Resort Vancouver,Starbucks,75829-58840,604-984-0661,LS,6400 Nancy Green Way,6400 Nancy Green Way,,,Vancouver,BC,CA,V7R 4K9,"(49.3724822998047, -123.098655700684)",49.372482299804688,-123.09865570068359,Pacific Standard Time,-480,GMT-08:00 America/Vancouver,12/08/2013 05:41:59 PM
451,Safeway-Langley #43,Starbucks,74461-95602,6045344363,LS,20871 Fraser Hwy,20871 Fraser Hwy,,,Langley,BC,CA,V3A 4G7,"(49.102424621582, -122.644561767578)",49.102424621582031,-122.64456176757813,Pacific Standard Time,-480,GMT-08:00 America/Vancouver,12/08/2013 05:41:59 PM
452,Safeway-Port Coquitlam #93,Starbucks,74462-95599,6049454072,LS,1100-2850 Shaughnessy St,1100-2850 Shaughnessy St,,,Port Coquitlam,BC,CA,V3C 6K5,"(49.2659454345703, -122.775314331055)",49.265945434570312,-122.77531433105469,Pacific Standard Time,-480,GMT-08:00 America/Vancouver,12/08/2013 05:41:59 PM
453,Safeway-Sherwood Park #822,Starbucks,74749-97398,780-467-3037,LS,2020 Sherwood Drive,2020 Sherwood Drive,,,Sherwood Park,AB,CA,T8A 3H9,"(53.5302810668945, -113.295417785645)",53.530281066894531,-113.29541778564453,Mountain Standard Time,-420,GMT-07:00 America/Edmonton,12/08/2013 05:41:59 PM
454,Safeway-Lethbridge #2276,Starbucks,74730-97380,,LS,1550 University Drive W,1550 University Drive W,,,Lethbridge,AB,CA,T1J 4T3,"(49.6936988830566, -112.891510009766)",49.693698883056641,-112.89151000976563,Mountain Standard Time,-420,GMT-07:00 America/Edmonton,12/08/2013 05:41:59 PM
461,Safeway - Chilliwack #99,Starbucks,74898-100956,604-795-6428,LS,Yale Rd & Chem Ave,Yale Rd & Chem Ave,,,Chilliwack,BC,CA,V2P 2N9,"(49.164981842041, -121.958763122559)",49.164981842041016,-121.95876312255859,Pacific Standard Time,-480,GMT-08:00 America/Vancouver,12/08/2013 05:41:59 PM
468,Safeway - Calgary 2243,Starbucks,74996-104506,403-730-4955,LS,5607 4th Street NW,5607 4th Street NW,,,Calgary,AB,CA,T2K 1B3,"(51.1017761230469, -114.072601318359)",51.101776123046875,-114.07260131835938,Mountain Standard Time,-420,GMT-07:00 America/Edmonton,12/08/2013 05:41:59 PM
472,Safeway - North Vancouver #162,Starbucks,74965-103271,,LS,1175 Mt Seymour Road,1175 Mt Seymour Road,,,North Vancouver,BC,CA,V7H 2Y4,"(49.316780090332, -122.969131469727)",49.316780090332031,-122.96913146972656,Pacific Standard Time,-480,GMT-08:00 America/Vancouver,12/08/2013 05:41:59 PM
